[{"StreetAddress":"1704 Hauk Terrace","City":"Cedar Rapids","State":"IA","Zip":"52410"},
{"StreetAddress":"25 Harbort Lane","City":"Wilmington","State":"DE","Zip":"19810"},
{"StreetAddress":"94 Amoth Circle","City":"San Francisco","State":"CA","Zip":"94132"},
{"StreetAddress":"2529 Dakota Place","City":"Atlanta","State":"GA","Zip":"30368"},
{"StreetAddress":"7 Coolidge Terrace","City":"San Diego","State":"CA","Zip":"92191"},
{"StreetAddress":"26225 Logan Park","City":"Charlotte","State":"NC","Zip":"28272"},
{"StreetAddress":"723 Drewry Plaza","City":"Sacramento","State":"CA","Zip":"95818"},
{"StreetAddress":"7282 Raven Lane","City":"Oklahoma City","State":"OK","Zip":"73119"},
{"StreetAddress":"5 Bultman Point","City":"Muncie","State":"IN","Zip":"47306"},
{"StreetAddress":"2 Ohio Park","City":"Fort Wayne","State":"IN","Zip":"46852"},
{"StreetAddress":"8 Lindbergh Street","City":"San Francisco","State":"CA","Zip":"94147"},
{"StreetAddress":"5 Westport Road","City":"Jefferson City","State":"MO","Zip":"65110"},
{"StreetAddress":"1825 Straubel Plaza","City":"Las Vegas","State":"NV","Zip":"89140"},
{"StreetAddress":"7 Dakota Park","City":"Pittsburgh","State":"PA","Zip":"15274"},
{"StreetAddress":"28093 Bartillon Center","City":"Los Angeles","State":"CA","Zip":"90030"},
{"StreetAddress":"65 Scott Drive","City":"Falls Church","State":"VA","Zip":"22047"},
{"StreetAddress":"84 Emmet Plaza","City":"Buffalo","State":"NY","Zip":"14269"},
{"StreetAddress":"86074 Grasskamp Pass","City":"Naples","State":"FL","Zip":"34108"},
{"StreetAddress":"98 Welch Alley","City":"Columbia","State":"SC","Zip":"29203"},
{"StreetAddress":"44529 Del Mar Lane","City":"El Paso","State":"TX","Zip":"79950"},
{"StreetAddress":"55 Sullivan Junction","City":"Washington","State":"DC","Zip":"20337"},
{"StreetAddress":"6359 Arizona Junction","City":"Jackson","State":"MS","Zip":"39204"},
{"StreetAddress":"9 Springs Crossing","City":"Young America","State":"MN","Zip":"55573"},
{"StreetAddress":"230 Claremont Point","City":"Washington","State":"DC","Zip":"20226"},
{"StreetAddress":"82 Mayfield Street","City":"Albany","State":"NY","Zip":"12237"},
{"StreetAddress":"954 Grayhawk Court","City":"Pompano Beach","State":"FL","Zip":"33064"},
{"StreetAddress":"78 Reinke Lane","City":"Manassas","State":"VA","Zip":"22111"},
{"StreetAddress":"54562 Mallory Circle","City":"Everett","State":"WA","Zip":"98206"},
{"StreetAddress":"61327 Barnett Alley","City":"Jacksonville","State":"FL","Zip":"32244"},
{"StreetAddress":"0 Ohio Hill","City":"Orange","State":"CA","Zip":"92867"},
{"StreetAddress":"51 Rusk Alley","City":"Washington","State":"DC","Zip":"20010"},
{"StreetAddress":"3 Sutteridge Circle","City":"Phoenix","State":"AZ","Zip":"85062"},
{"StreetAddress":"75 Westerfield Parkway","City":"Indianapolis","State":"IN","Zip":"46221"},
{"StreetAddress":"1477 Kenwood Lane","City":"Chesapeake","State":"VA","Zip":"23324"},
{"StreetAddress":"28 Nobel Pass","City":"Fresno","State":"CA","Zip":"93715"},
{"StreetAddress":"247 Morningstar Plaza","City":"Louisville","State":"KY","Zip":"40287"},
{"StreetAddress":"59 Magdeline Hill","City":"Denver","State":"CO","Zip":"80241"},
{"StreetAddress":"06554 3rd Plaza","City":"Portland","State":"OR","Zip":"97221"},
{"StreetAddress":"2 Sundown Road","City":"Peoria","State":"IL","Zip":"61629"},
{"StreetAddress":"60 Forster Park","City":"Denver","State":"CO","Zip":"80299"},
{"StreetAddress":"820 Graceland Alley","City":"Los Angeles","State":"CA","Zip":"90189"},
{"StreetAddress":"306 Southridge Trail","City":"Meridian","State":"MS","Zip":"39305"},
{"StreetAddress":"3783 Rutledge Plaza","City":"San Antonio","State":"TX","Zip":"78215"},
{"StreetAddress":"5 Lunder Road","City":"Richmond","State":"VA","Zip":"23277"},
{"StreetAddress":"9 Kropf Terrace","City":"Chicago","State":"IL","Zip":"60657"},
{"StreetAddress":"448 Mosinee Trail","City":"Jacksonville","State":"FL","Zip":"32259"},
{"StreetAddress":"22016 Oneill Lane","City":"Fort Lauderdale","State":"FL","Zip":"33305"},
{"StreetAddress":"578 Spenser Trail","City":"Duluth","State":"MN","Zip":"55811"},
{"StreetAddress":"8 Dayton Center","City":"Tampa","State":"FL","Zip":"33615"},
{"StreetAddress":"7753 Huxley Way","City":"San Francisco","State":"CA","Zip":"94121"},
{"StreetAddress":"76 Fordem Junction","City":"Washington","State":"DC","Zip":"20260"},
{"StreetAddress":"67 Memorial Hill","City":"Montgomery","State":"AL","Zip":"36195"},
{"StreetAddress":"190 Sauthoff Avenue","City":"Little Rock","State":"AR","Zip":"72222"},
{"StreetAddress":"99351 Artisan Drive","City":"Pomona","State":"CA","Zip":"91797"},
{"StreetAddress":"69205 Green Ridge Alley","City":"Des Moines","State":"IA","Zip":"50347"},
{"StreetAddress":"5945 Hanson Parkway","City":"Albuquerque","State":"NM","Zip":"87105"},
{"StreetAddress":"61885 Karstens Terrace","City":"Bradenton","State":"FL","Zip":"34210"},
{"StreetAddress":"54 Southridge Center","City":"Colorado Springs","State":"CO","Zip":"80945"},
{"StreetAddress":"8816 Acker Pass","City":"Seattle","State":"WA","Zip":"98166"},
{"StreetAddress":"27136 Carpenter Circle","City":"Louisville","State":"KY","Zip":"40233"},
{"StreetAddress":"4 Bashford Circle","City":"South Lake Tahoe","State":"CA","Zip":"96154"},
{"StreetAddress":"62 Sauthoff Hill","City":"Duluth","State":"MN","Zip":"55805"},
{"StreetAddress":"3869 Union Alley","City":"Evansville","State":"IN","Zip":"47712"},
{"StreetAddress":"9 Clarendon Hill","City":"Seattle","State":"WA","Zip":"98185"},
{"StreetAddress":"622 Nobel Court","City":"San Antonio","State":"TX","Zip":"78220"},
{"StreetAddress":"8 Sundown Avenue","City":"Pomona","State":"CA","Zip":"91797"},
{"StreetAddress":"466 Gulseth Pass","City":"Lubbock","State":"TX","Zip":"79405"},
{"StreetAddress":"28 Gulseth Court","City":"Baltimore","State":"MD","Zip":"21265"},
{"StreetAddress":"4377 Briar Crest Road","City":"Saint Louis","State":"MO","Zip":"63126"},
{"StreetAddress":"324 Dottie Junction","City":"Huntington","State":"WV","Zip":"25705"},
{"StreetAddress":"91 Jenna Drive","City":"Brooklyn","State":"NY","Zip":"11225"},
{"StreetAddress":"475 Monument Lane","City":"Newark","State":"NJ","Zip":"07195"},
{"StreetAddress":"3246 Petterle Place","City":"Newark","State":"NJ","Zip":"07188"},
{"StreetAddress":"1 Ridgeway Way","City":"Philadelphia","State":"PA","Zip":"19131"},
{"StreetAddress":"420 Garrison Drive","City":"Detroit","State":"MI","Zip":"48206"},
{"StreetAddress":"68185 Oxford Street","City":"Louisville","State":"KY","Zip":"40250"},
{"StreetAddress":"174 Gerald Crossing","City":"Billings","State":"MT","Zip":"59105"},
{"StreetAddress":"7679 Manley Place","City":"Washington","State":"DC","Zip":"20029"},
{"StreetAddress":"63 Welch Circle","City":"Phoenix","State":"AZ","Zip":"85099"},
{"StreetAddress":"799 Blue Bill Park Trail","City":"Columbus","State":"GA","Zip":"31904"},
{"StreetAddress":"6659 Bunker Hill Pass","City":"Atlanta","State":"GA","Zip":"30306"},
{"StreetAddress":"06296 Nobel Drive","City":"Cincinnati","State":"OH","Zip":"45228"},
{"StreetAddress":"55616 Straubel Court","City":"Anchorage","State":"AK","Zip":"99512"},
{"StreetAddress":"897 Bashford Hill","City":"Duluth","State":"GA","Zip":"30195"},
{"StreetAddress":"9458 Dovetail Way","City":"Austin","State":"TX","Zip":"78726"},
{"StreetAddress":"47 Namekagon Crossing","City":"Mobile","State":"AL","Zip":"36689"},
{"StreetAddress":"90956 Goodland Street","City":"Canton","State":"OH","Zip":"44710"},
{"StreetAddress":"24 Talisman Trail","City":"Erie","State":"PA","Zip":"16550"},
{"StreetAddress":"592 Northland Street","City":"Portland","State":"OR","Zip":"97201"},
{"StreetAddress":"78073 Evergreen Point","City":"Denton","State":"TX","Zip":"76205"},
{"StreetAddress":"58551 Reindahl Crossing","City":"Reston","State":"VA","Zip":"22096"},
{"StreetAddress":"9281 Mcguire Alley","City":"Daytona Beach","State":"FL","Zip":"32128"},
{"StreetAddress":"248 Vahlen Crossing","City":"Canton","State":"OH","Zip":"44760"},
{"StreetAddress":"356 Almo Road","City":"Tacoma","State":"WA","Zip":"98464"},
{"StreetAddress":"25942 2nd Parkway","City":"Grand Rapids","State":"MI","Zip":"49518"},
{"StreetAddress":"4178 Dixon Avenue","City":"San Rafael","State":"CA","Zip":"94913"},
{"StreetAddress":"00829 Fremont Way","City":"Houston","State":"TX","Zip":"77070"},
{"StreetAddress":"1147 Harper Terrace","City":"Boise","State":"ID","Zip":"83732"},
{"StreetAddress":"51 Red Cloud Drive","City":"Saint Louis","State":"MO","Zip":"63143"},
{"StreetAddress":"12745 Commercial Street","City":"Sarasota","State":"FL","Zip":"34238"},
{"StreetAddress":"120 Bay Plaza","City":"Denton","State":"TX","Zip":"76210"},
{"StreetAddress":"0 Amoth Street","City":"Mesa","State":"AZ","Zip":"85205"},
{"StreetAddress":"52 John Wall Lane","City":"San Diego","State":"CA","Zip":"92105"},
{"StreetAddress":"4 Heath Drive","City":"Dearborn","State":"MI","Zip":"48126"},
{"StreetAddress":"22 Heffernan Parkway","City":"Dallas","State":"TX","Zip":"75358"},
{"StreetAddress":"4871 Bartelt Circle","City":"Kingsport","State":"TN","Zip":"37665"},
{"StreetAddress":"366 Rowland Alley","City":"Crawfordsville","State":"IN","Zip":"47937"},
{"StreetAddress":"9842 Dawn Trail","City":"New York City","State":"NY","Zip":"10045"},
{"StreetAddress":"1180 Warbler Center","City":"Salem","State":"OR","Zip":"97306"},
{"StreetAddress":"1 Lakeland Parkway","City":"Tulsa","State":"OK","Zip":"74103"},
{"StreetAddress":"443 West Terrace","City":"Fort Lauderdale","State":"FL","Zip":"33325"},
{"StreetAddress":"5 Hayes Park","City":"Lake Charles","State":"LA","Zip":"70616"},
{"StreetAddress":"5 Gulseth Way","City":"Largo","State":"FL","Zip":"34643"},
{"StreetAddress":"963 Wayridge Park","City":"Florence","State":"SC","Zip":"29505"},
{"StreetAddress":"4200 Maryland Crossing","City":"Monticello","State":"MN","Zip":"55585"},
{"StreetAddress":"989 Heath Hill","City":"Mobile","State":"AL","Zip":"36616"},
{"StreetAddress":"722 Loeprich Way","City":"Kalamazoo","State":"MI","Zip":"49006"},
{"StreetAddress":"6 Ridgeview Trail","City":"Warren","State":"MI","Zip":"48092"},
{"StreetAddress":"3177 Kropf Court","City":"Spokane","State":"WA","Zip":"99252"},
{"StreetAddress":"53 Buell Circle","City":"Sacramento","State":"CA","Zip":"95894"},
{"StreetAddress":"4 Bluestem Center","City":"Boise","State":"ID","Zip":"83711"},
{"StreetAddress":"4269 Grim Circle","City":"Albany","State":"NY","Zip":"12247"},
{"StreetAddress":"357 Warner Court","City":"Monticello","State":"MN","Zip":"55585"},
{"StreetAddress":"5 Waubesa Park","City":"Modesto","State":"CA","Zip":"95397"},
{"StreetAddress":"712 8th Parkway","City":"Peoria","State":"IL","Zip":"61614"},
{"StreetAddress":"4 Texas Place","City":"Louisville","State":"KY","Zip":"40293"},
{"StreetAddress":"2 Mcbride Lane","City":"Burbank","State":"CA","Zip":"91520"},
{"StreetAddress":"52092 Merrick Point","City":"Shawnee Mission","State":"KS","Zip":"66205"},
{"StreetAddress":"05996 Oak Parkway","City":"Topeka","State":"KS","Zip":"66667"},
{"StreetAddress":"6510 Arizona Drive","City":"Lancaster","State":"PA","Zip":"17622"},
{"StreetAddress":"1216 Artisan Parkway","City":"Las Vegas","State":"NV","Zip":"89110"},
{"StreetAddress":"3050 Brickson Park Hill","City":"Carson City","State":"NV","Zip":"89706"},
{"StreetAddress":"10553 Rusk Lane","City":"Las Vegas","State":"NV","Zip":"89135"},
{"StreetAddress":"1010 Summit Park","City":"Panama City","State":"FL","Zip":"32412"},
{"StreetAddress":"400 Melrose Hill","City":"Chicago","State":"IL","Zip":"60691"},
{"StreetAddress":"560 Monica Pass","City":"Memphis","State":"TN","Zip":"38150"},
{"StreetAddress":"433 Westport Lane","City":"Topeka","State":"KS","Zip":"66642"},
{"StreetAddress":"998 Jenna Circle","City":"Raleigh","State":"NC","Zip":"27635"},
{"StreetAddress":"0612 Redwing Junction","City":"Gainesville","State":"FL","Zip":"32605"},
{"StreetAddress":"124 Burning Wood Road","City":"Washington","State":"DC","Zip":"20226"},
{"StreetAddress":"52 Meadow Valley Junction","City":"San Bernardino","State":"CA","Zip":"92424"},
{"StreetAddress":"54 Larry Avenue","City":"San Jose","State":"CA","Zip":"95133"},
{"StreetAddress":"87531 Crest Line Avenue","City":"Silver Spring","State":"MD","Zip":"20918"},
{"StreetAddress":"0 Monica Drive","City":"North Little Rock","State":"AR","Zip":"72118"},
{"StreetAddress":"727 Delladonna Crossing","City":"Pittsburgh","State":"PA","Zip":"15230"},
{"StreetAddress":"00027 Anhalt Avenue","City":"Sioux Falls","State":"SD","Zip":"57105"},
{"StreetAddress":"47035 Hazelcrest Place","City":"Erie","State":"PA","Zip":"16550"},
{"StreetAddress":"4 Moose Crossing","City":"Washington","State":"DC","Zip":"20088"},
{"StreetAddress":"42 Starling Way","City":"Pittsburgh","State":"PA","Zip":"15230"},
{"StreetAddress":"2863 Hanover Street","City":"Olympia","State":"WA","Zip":"98516"},
{"StreetAddress":"6 Red Cloud Circle","City":"Cleveland","State":"OH","Zip":"44111"},
{"StreetAddress":"950 Lindbergh Circle","City":"Hialeah","State":"FL","Zip":"33013"},
{"StreetAddress":"3475 Beilfuss Terrace","City":"Cleveland","State":"OH","Zip":"44105"},
{"StreetAddress":"251 Pankratz Parkway","City":"New Orleans","State":"LA","Zip":"70174"},
{"StreetAddress":"16625 Larry Avenue","City":"Fort Lauderdale","State":"FL","Zip":"33325"},
{"StreetAddress":"083 Memorial Parkway","City":"Washington","State":"DC","Zip":"20580"},
{"StreetAddress":"227 Division Court","City":"Sacramento","State":"CA","Zip":"95818"},
{"StreetAddress":"44411 Charing Cross Lane","City":"Seattle","State":"WA","Zip":"98133"},
{"StreetAddress":"57732 Schiller Trail","City":"Austin","State":"TX","Zip":"78759"},
{"StreetAddress":"7160 Washington Plaza","City":"Jamaica","State":"NY","Zip":"11470"},
{"StreetAddress":"34681 Fordem Court","City":"Lynchburg","State":"VA","Zip":"24515"},
{"StreetAddress":"43345 Brentwood Way","City":"Abilene","State":"TX","Zip":"79605"},
{"StreetAddress":"2749 Fuller Way","City":"Springfield","State":"MA","Zip":"01105"},
{"StreetAddress":"207 Onsgard Trail","City":"Mobile","State":"AL","Zip":"36670"},
{"StreetAddress":"870 Laurel Avenue","City":"Irvine","State":"CA","Zip":"92619"},
{"StreetAddress":"901 Rusk Street","City":"Columbus","State":"GA","Zip":"31904"},
{"StreetAddress":"409 Warbler Pass","City":"Denver","State":"CO","Zip":"80241"},
{"StreetAddress":"0256 Portage Crossing","City":"San Antonio","State":"TX","Zip":"78220"},
{"StreetAddress":"94860 Dixon Alley","City":"Billings","State":"MT","Zip":"59105"},
{"StreetAddress":"84 Schlimgen Pass","City":"San Francisco","State":"CA","Zip":"94159"},
{"StreetAddress":"033 Moland Road","City":"Portland","State":"OR","Zip":"97240"},
{"StreetAddress":"5 Golf Point","City":"Fort Wayne","State":"IN","Zip":"46825"},
{"StreetAddress":"95270 Sunbrook Crossing","City":"Fort Lauderdale","State":"FL","Zip":"33355"},
{"StreetAddress":"2 Memorial Hill","City":"Colorado Springs","State":"CO","Zip":"80905"},
{"StreetAddress":"6132 Browning Parkway","City":"Young America","State":"MN","Zip":"55564"},
{"StreetAddress":"0928 Katie Hill","City":"Austin","State":"TX","Zip":"78721"},
{"StreetAddress":"8 Acker Avenue","City":"Gary","State":"IN","Zip":"46406"},
{"StreetAddress":"3679 Talmadge Alley","City":"San Francisco","State":"CA","Zip":"94147"},
{"StreetAddress":"6 Quincy Way","City":"Atlanta","State":"GA","Zip":"30301"},
{"StreetAddress":"7780 Hintze Avenue","City":"Inglewood","State":"CA","Zip":"90398"},
{"StreetAddress":"08085 Bluejay Hill","City":"San Francisco","State":"CA","Zip":"94126"},
{"StreetAddress":"93448 Sundown Point","City":"Springfield","State":"MA","Zip":"01114"},
{"StreetAddress":"9 Little Fleur Alley","City":"Houston","State":"TX","Zip":"77250"},
{"StreetAddress":"034 Valley Edge Lane","City":"Albuquerque","State":"NM","Zip":"87140"},
{"StreetAddress":"723 Farragut Point","City":"New York City","State":"NY","Zip":"10175"},
{"StreetAddress":"61871 Elgar Drive","City":"Shawnee Mission","State":"KS","Zip":"66225"},
{"StreetAddress":"99402 Randy Trail","City":"Houston","State":"TX","Zip":"77090"},
{"StreetAddress":"426 Eagle Crest Way","City":"Arlington","State":"VA","Zip":"22217"},
{"StreetAddress":"0153 Ludington Alley","City":"Washington","State":"DC","Zip":"20226"},
{"StreetAddress":"29 Golf Road","City":"Philadelphia","State":"PA","Zip":"19184"},
{"StreetAddress":"696 Johnson Place","City":"New York City","State":"NY","Zip":"10099"},
{"StreetAddress":"85170 Gina Center","City":"Arlington","State":"TX","Zip":"76011"},
{"StreetAddress":"56 International Way","City":"Stockton","State":"CA","Zip":"95219"},
{"StreetAddress":"5 Holmberg Drive","City":"Merrifield","State":"VA","Zip":"22119"},
{"StreetAddress":"96 Bay Junction","City":"Albany","State":"NY","Zip":"12247"},
{"StreetAddress":"45 Northland Circle","City":"Kansas City","State":"MO","Zip":"64101"},
{"StreetAddress":"37 Reinke Drive","City":"Winston Salem","State":"NC","Zip":"27116"},
{"StreetAddress":"1 Sachs Way","City":"Simi Valley","State":"CA","Zip":"93094"},
{"StreetAddress":"920 Calypso Terrace","City":"Columbus","State":"OH","Zip":"43240"},
{"StreetAddress":"7200 Southridge Junction","City":"Canton","State":"OH","Zip":"44720"},
{"StreetAddress":"30 Canary Crossing","City":"Saint Petersburg","State":"FL","Zip":"33710"},
{"StreetAddress":"60605 Dunning Center","City":"Fort Lauderdale","State":"FL","Zip":"33325"},
{"StreetAddress":"3565 7th Terrace","City":"Baton Rouge","State":"LA","Zip":"70826"},
{"StreetAddress":"21465 Mariners Cove Street","City":"Peoria","State":"IL","Zip":"61651"},
{"StreetAddress":"48 Village Green Place","City":"Indianapolis","State":"IN","Zip":"46247"},
{"StreetAddress":"0 Di Loreto Road","City":"Philadelphia","State":"PA","Zip":"19146"},
{"StreetAddress":"1837 Di Loreto Circle","City":"Gainesville","State":"FL","Zip":"32605"},
{"StreetAddress":"57131 Hazelcrest Crossing","City":"Washington","State":"DC","Zip":"20414"},
{"StreetAddress":"97699 Evergreen Crossing","City":"Columbia","State":"SC","Zip":"29203"},
{"StreetAddress":"2 Scofield Crossing","City":"Shreveport","State":"LA","Zip":"71130"},
{"StreetAddress":"31500 Melrose Crossing","City":"San Jose","State":"CA","Zip":"95108"},
{"StreetAddress":"92 Scott Hill","City":"Jacksonville","State":"FL","Zip":"32277"},
{"StreetAddress":"0 Menomonie Crossing","City":"Schenectady","State":"NY","Zip":"12325"},
{"StreetAddress":"3 Oxford Center","City":"Indianapolis","State":"IN","Zip":"46247"},
{"StreetAddress":"59 Hovde Lane","City":"Wichita","State":"KS","Zip":"67215"},
{"StreetAddress":"041 Stoughton Parkway","City":"Wilmington","State":"DE","Zip":"19805"},
{"StreetAddress":"8265 Dayton Center","City":"Sacramento","State":"CA","Zip":"95813"},
{"StreetAddress":"285 Randy Alley","City":"Jackson","State":"MS","Zip":"39210"},
{"StreetAddress":"4336 Continental Drive","City":"Chicago","State":"IL","Zip":"60669"},
{"StreetAddress":"744 Gale Hill","City":"Wichita Falls","State":"TX","Zip":"76310"},
{"StreetAddress":"177 Johnson Terrace","City":"Youngstown","State":"OH","Zip":"44511"},
{"StreetAddress":"588 Oneill Parkway","City":"Shawnee Mission","State":"KS","Zip":"66286"},
{"StreetAddress":"1093 Colorado Court","City":"Tacoma","State":"WA","Zip":"98464"},
{"StreetAddress":"62087 John Wall Court","City":"Chicago","State":"IL","Zip":"60646"},
{"StreetAddress":"754 Pearson Hill","City":"Moreno Valley","State":"CA","Zip":"92555"},
{"StreetAddress":"0 Vernon Circle","City":"Bellevue","State":"WA","Zip":"98008"},
{"StreetAddress":"2196 Vernon Point","City":"Erie","State":"PA","Zip":"16550"},
{"StreetAddress":"89405 Butternut Junction","City":"Gadsden","State":"AL","Zip":"35905"},
{"StreetAddress":"14 Grasskamp Pass","City":"Valdosta","State":"GA","Zip":"31605"},
{"StreetAddress":"93 Chinook Hill","City":"Birmingham","State":"AL","Zip":"35242"},
{"StreetAddress":"4 Veith Junction","City":"Corpus Christi","State":"TX","Zip":"78426"},
{"StreetAddress":"667 Longview Court","City":"Homestead","State":"FL","Zip":"33034"},
{"StreetAddress":"08154 Emmet Center","City":"Memphis","State":"TN","Zip":"38136"},
{"StreetAddress":"934 Anthes Park","City":"Punta Gorda","State":"FL","Zip":"33982"},
{"StreetAddress":"82 Golf Course Road","City":"New York City","State":"NY","Zip":"10009"},
{"StreetAddress":"8 Superior Junction","City":"Rochester","State":"NY","Zip":"14619"},
{"StreetAddress":"704 Ruskin Point","City":"Chico","State":"CA","Zip":"95973"},
{"StreetAddress":"8876 Lawn Drive","City":"Flint","State":"MI","Zip":"48505"},
{"StreetAddress":"38 Oak Valley Circle","City":"Washington","State":"DC","Zip":"20062"},
{"StreetAddress":"9 Brickson Park Plaza","City":"Saint Louis","State":"MO","Zip":"63104"},
{"StreetAddress":"24 Transport Court","City":"Chicago","State":"IL","Zip":"60636"},
{"StreetAddress":"19 Norway Maple Park","City":"Corpus Christi","State":"TX","Zip":"78410"},
{"StreetAddress":"944 Almo Hill","City":"Stamford","State":"CT","Zip":"06922"},
{"StreetAddress":"42 Mallard Avenue","City":"Philadelphia","State":"PA","Zip":"19141"},
{"StreetAddress":"07 Garrison Terrace","City":"Inglewood","State":"CA","Zip":"90305"},
{"StreetAddress":"3 Red Cloud Pass","City":"Lincoln","State":"NE","Zip":"68505"},
{"StreetAddress":"602 Manley Crossing","City":"Canton","State":"OH","Zip":"44710"},
{"StreetAddress":"9027 Monterey Street","City":"Trenton","State":"NJ","Zip":"08650"},
{"StreetAddress":"37696 Briar Crest Crossing","City":"Maple Plain","State":"MN","Zip":"55579"},
{"StreetAddress":"48 Hovde Drive","City":"Anderson","State":"IN","Zip":"46015"},
{"StreetAddress":"27 Lillian Center","City":"Chicago","State":"IL","Zip":"60691"},
{"StreetAddress":"405 Bashford Drive","City":"Edmond","State":"OK","Zip":"73034"},
{"StreetAddress":"73599 Fuller Plaza","City":"Tucson","State":"AZ","Zip":"85732"},
{"StreetAddress":"5 Susan Park","City":"Raleigh","State":"NC","Zip":"27605"},
{"StreetAddress":"90 Loftsgordon Avenue","City":"Honolulu","State":"HI","Zip":"96845"},
{"StreetAddress":"68 Marquette Park","City":"Montgomery","State":"AL","Zip":"36177"},
{"StreetAddress":"503 Old Gate Drive","City":"Fort Collins","State":"CO","Zip":"80525"},
{"StreetAddress":"0308 Bonner Circle","City":"New Orleans","State":"LA","Zip":"70165"},
{"StreetAddress":"9314 Northridge Circle","City":"Honolulu","State":"HI","Zip":"96805"},
{"StreetAddress":"81125 Prentice Hill","City":"Huntington","State":"WV","Zip":"25770"},
{"StreetAddress":"6 Westend Crossing","City":"Birmingham","State":"AL","Zip":"35242"},
{"StreetAddress":"5532 Farragut Lane","City":"Los Angeles","State":"CA","Zip":"90010"},
{"StreetAddress":"97238 Tony Lane","City":"Houston","State":"TX","Zip":"77281"},
{"StreetAddress":"7940 Tony Street","City":"Houston","State":"TX","Zip":"77255"},
{"StreetAddress":"7 Shelley Parkway","City":"Saint Louis","State":"MO","Zip":"63121"},
{"StreetAddress":"9713 Dryden Trail","City":"Sparks","State":"NV","Zip":"89436"},
{"StreetAddress":"5 Helena Center","City":"Knoxville","State":"TN","Zip":"37995"},
{"StreetAddress":"2136 Golf Course Street","City":"North Hollywood","State":"CA","Zip":"91606"},
{"StreetAddress":"902 Algoma Road","City":"Des Moines","State":"IA","Zip":"50305"},
{"StreetAddress":"309 Sheridan Way","City":"Greenville","State":"SC","Zip":"29610"},
{"StreetAddress":"1 Muir Junction","City":"Tampa","State":"FL","Zip":"33673"},
{"StreetAddress":"97 Spaight Drive","City":"New Orleans","State":"LA","Zip":"70142"},
{"StreetAddress":"28619 Weeping Birch Crossing","City":"Hampton","State":"VA","Zip":"23668"},
{"StreetAddress":"4 Oneill Alley","City":"Chula Vista","State":"CA","Zip":"91913"},
{"StreetAddress":"40 Mayfield Alley","City":"Little Rock","State":"AR","Zip":"72222"},
{"StreetAddress":"7 Weeping Birch Parkway","City":"Oklahoma City","State":"OK","Zip":"73114"},
{"StreetAddress":"2147 Cottonwood Avenue","City":"Anaheim","State":"CA","Zip":"92812"},
{"StreetAddress":"6 Hallows Crossing","City":"Oceanside","State":"CA","Zip":"92056"},
{"StreetAddress":"0985 Carioca Junction","City":"North Hollywood","State":"CA","Zip":"91616"},
{"StreetAddress":"56329 Rieder Pass","City":"Chicago","State":"IL","Zip":"60652"},
{"StreetAddress":"99620 Service Parkway","City":"Mobile","State":"AL","Zip":"36641"},
{"StreetAddress":"4 Pankratz Pass","City":"Boise","State":"ID","Zip":"83711"},
{"StreetAddress":"1 Ludington Street","City":"Minneapolis","State":"MN","Zip":"55428"},
{"StreetAddress":"0619 Sherman Circle","City":"Roanoke","State":"VA","Zip":"24024"},
{"StreetAddress":"995 Mcguire Avenue","City":"Bronx","State":"NY","Zip":"10454"},
{"StreetAddress":"1 Sauthoff Way","City":"Palm Bay","State":"FL","Zip":"32909"},
{"StreetAddress":"1 Monica Plaza","City":"Miami","State":"FL","Zip":"33147"},
{"StreetAddress":"7 Brickson Park Plaza","City":"Albany","State":"NY","Zip":"12247"},
{"StreetAddress":"81978 Everett Alley","City":"Little Rock","State":"AR","Zip":"72222"},
{"StreetAddress":"0 Marquette Way","City":"Miami","State":"FL","Zip":"33185"},
{"StreetAddress":"8 Marquette Crossing","City":"New York City","State":"NY","Zip":"10155"},
{"StreetAddress":"997 Elmside Pass","City":"Newark","State":"NJ","Zip":"07112"},
{"StreetAddress":"843 Village Road","City":"Shreveport","State":"LA","Zip":"71115"},
{"StreetAddress":"71302 Sage Avenue","City":"Cincinnati","State":"OH","Zip":"45208"},
{"StreetAddress":"18 Graceland Pass","City":"Davenport","State":"IA","Zip":"52809"},
{"StreetAddress":"329 Ryan Hill","City":"Fort Pierce","State":"FL","Zip":"34949"},
{"StreetAddress":"0 Lawn Alley","City":"Roanoke","State":"VA","Zip":"24040"},
{"StreetAddress":"16 Bultman Plaza","City":"Billings","State":"MT","Zip":"59112"},
{"StreetAddress":"74 Rutledge Trail","City":"Fresno","State":"CA","Zip":"93715"},
{"StreetAddress":"54 Pine View Lane","City":"New Haven","State":"CT","Zip":"06505"},
{"StreetAddress":"05920 Almo Way","City":"Garland","State":"TX","Zip":"75044"},
{"StreetAddress":"0 Brown Way","City":"Boise","State":"ID","Zip":"83711"},
{"StreetAddress":"8 Kim Court","City":"Sacramento","State":"CA","Zip":"94250"},
{"StreetAddress":"43868 Sage Hill","City":"Cleveland","State":"OH","Zip":"44177"},
{"StreetAddress":"73080 Eastlawn Junction","City":"Los Angeles","State":"CA","Zip":"90101"},
{"StreetAddress":"12 Monterey Place","City":"Richmond","State":"VA","Zip":"23220"},
{"StreetAddress":"13895 Fuller Circle","City":"Fort Wayne","State":"IN","Zip":"46825"},
{"StreetAddress":"22 Bartelt Road","City":"Los Angeles","State":"CA","Zip":"90005"},
{"StreetAddress":"85 Hollow Ridge Drive","City":"New York City","State":"NY","Zip":"10275"},
{"StreetAddress":"72 Knutson Drive","City":"Baltimore","State":"MD","Zip":"21282"},
{"StreetAddress":"17 Miller Junction","City":"El Paso","State":"TX","Zip":"79911"},
{"StreetAddress":"719 Monument Park","City":"Columbus","State":"GA","Zip":"31998"},
{"StreetAddress":"51 Killdeer Plaza","City":"Philadelphia","State":"PA","Zip":"19196"},
{"StreetAddress":"78 Oneill Plaza","City":"Topeka","State":"KS","Zip":"66629"},
{"StreetAddress":"4881 Morrow Plaza","City":"Minneapolis","State":"MN","Zip":"55412"},
{"StreetAddress":"2371 Lakeland Park","City":"Canton","State":"OH","Zip":"44760"},
{"StreetAddress":"99812 Hagan Trail","City":"Mountain View","State":"CA","Zip":"94042"},
{"StreetAddress":"6 High Crossing Lane","City":"New York City","State":"NY","Zip":"10090"},
{"StreetAddress":"54 Dexter Road","City":"South Bend","State":"IN","Zip":"46620"},
{"StreetAddress":"9438 Kensington Court","City":"Memphis","State":"TN","Zip":"38114"},
{"StreetAddress":"6167 Rigney Hill","City":"Sacramento","State":"CA","Zip":"94245"},
{"StreetAddress":"1758 Gerald Crossing","City":"San Antonio","State":"TX","Zip":"78260"},
{"StreetAddress":"7343 Susan Road","City":"Johnson City","State":"TN","Zip":"37605"},
{"StreetAddress":"626 Fairview Way","City":"Albany","State":"NY","Zip":"12227"},
{"StreetAddress":"579 Artisan Point","City":"Fargo","State":"ND","Zip":"58106"},
{"StreetAddress":"0958 Hovde Plaza","City":"Indianapolis","State":"IN","Zip":"46266"},
{"StreetAddress":"46 Warner Avenue","City":"Denver","State":"CO","Zip":"80217"},
{"StreetAddress":"2028 Mendota Pass","City":"Pittsburgh","State":"PA","Zip":"15215"},
{"StreetAddress":"45325 Hintze Hill","City":"Lexington","State":"KY","Zip":"40524"},
{"StreetAddress":"97268 Schmedeman Lane","City":"San Francisco","State":"CA","Zip":"94164"},
{"StreetAddress":"9292 Village Hill","City":"Lincoln","State":"NE","Zip":"68505"},
{"StreetAddress":"4867 Randy Park","City":"Carlsbad","State":"CA","Zip":"92013"},
{"StreetAddress":"399 Continental Avenue","City":"Washington","State":"DC","Zip":"20530"},
{"StreetAddress":"3 Union Alley","City":"Seattle","State":"WA","Zip":"98195"},
{"StreetAddress":"7659 Packers Alley","City":"Newark","State":"DE","Zip":"19714"},
{"StreetAddress":"69953 Cody Park","City":"Brooksville","State":"FL","Zip":"34605"},
{"StreetAddress":"94 Cody Hill","City":"Macon","State":"GA","Zip":"31205"},
{"StreetAddress":"23935 Red Cloud Way","City":"Charleston","State":"WV","Zip":"25313"},
{"StreetAddress":"1034 Mallard Hill","City":"Pittsburgh","State":"PA","Zip":"15261"},
{"StreetAddress":"18 Luster Park","City":"South Bend","State":"IN","Zip":"46614"},
{"StreetAddress":"5 Bellgrove Way","City":"Sterling","State":"VA","Zip":"20167"},
{"StreetAddress":"5751 Sloan Junction","City":"Lynn","State":"MA","Zip":"01905"},
{"StreetAddress":"768 Loeprich Plaza","City":"Anderson","State":"SC","Zip":"29625"},
{"StreetAddress":"846 Meadow Valley Terrace","City":"Columbus","State":"MS","Zip":"39705"},
{"StreetAddress":"79 Summer Ridge Alley","City":"Washington","State":"DC","Zip":"20599"},
{"StreetAddress":"018 Graceland Hill","City":"Evansville","State":"IN","Zip":"47747"},
{"StreetAddress":"15509 Larry Junction","City":"Oklahoma City","State":"OK","Zip":"73109"},
{"StreetAddress":"196 Duke Center","City":"Yonkers","State":"NY","Zip":"10705"},
{"StreetAddress":"792 La Follette Road","City":"Stamford","State":"CT","Zip":"06905"},
{"StreetAddress":"2 Stuart Pass","City":"San Antonio","State":"TX","Zip":"78235"},
{"StreetAddress":"39 Glacier Hill Way","City":"Kansas City","State":"MO","Zip":"64187"},
{"StreetAddress":"9 Gateway Circle","City":"Roanoke","State":"VA","Zip":"24029"},
{"StreetAddress":"497 Drewry Circle","City":"Miami","State":"FL","Zip":"33190"},
{"StreetAddress":"6938 Ryan Avenue","City":"Syracuse","State":"NY","Zip":"13210"},
{"StreetAddress":"93491 Banding Park","City":"Fresno","State":"CA","Zip":"93786"},
{"StreetAddress":"097 Arizona Place","City":"Katy","State":"TX","Zip":"77493"},
{"StreetAddress":"61342 Fallview Court","City":"Minneapolis","State":"MN","Zip":"55448"},
{"StreetAddress":"33778 Gale Center","City":"Fresno","State":"CA","Zip":"93750"},
{"StreetAddress":"692 Elmside Park","City":"Springfield","State":"IL","Zip":"62723"},
{"StreetAddress":"544 Prairieview Way","City":"Toledo","State":"OH","Zip":"43610"},
{"StreetAddress":"99 Southridge Crossing","City":"Fort Lauderdale","State":"FL","Zip":"33315"},
{"StreetAddress":"434 Heffernan Terrace","City":"Albany","State":"NY","Zip":"12262"},
{"StreetAddress":"91 Kennedy Road","City":"Charlotte","State":"NC","Zip":"28289"},
{"StreetAddress":"151 Victoria Junction","City":"Yonkers","State":"NY","Zip":"10705"},
{"StreetAddress":"28 Garrison Road","City":"Palo Alto","State":"CA","Zip":"94302"},
{"StreetAddress":"2829 Mifflin Center","City":"Washington","State":"DC","Zip":"20005"},
{"StreetAddress":"88 Lien Place","City":"Jackson","State":"MS","Zip":"39236"},
{"StreetAddress":"2 Old Gate Crossing","City":"Kansas City","State":"MO","Zip":"64144"},
{"StreetAddress":"48130 Eagle Crest Center","City":"Phoenix","State":"AZ","Zip":"85053"},
{"StreetAddress":"11149 Reinke Court","City":"Oklahoma City","State":"OK","Zip":"73190"},
{"StreetAddress":"1002 Nobel Road","City":"Boise","State":"ID","Zip":"83705"},
{"StreetAddress":"830 Graceland Street","City":"Beaufort","State":"SC","Zip":"29905"},
{"StreetAddress":"31092 Oriole Crossing","City":"Brooklyn","State":"NY","Zip":"11225"},
{"StreetAddress":"34197 Veith Circle","City":"Tampa","State":"FL","Zip":"33647"},
{"StreetAddress":"08 John Wall Parkway","City":"Lynn","State":"MA","Zip":"01905"},
{"StreetAddress":"7270 Havey Pass","City":"Akron","State":"OH","Zip":"44305"},
{"StreetAddress":"103 Rieder Center","City":"Canton","State":"OH","Zip":"44760"},
{"StreetAddress":"75 Northport Street","City":"Evansville","State":"IN","Zip":"47719"},
{"StreetAddress":"33 Stone Corner Place","City":"Berkeley","State":"CA","Zip":"94712"},
{"StreetAddress":"8326 East Road","City":"Little Rock","State":"AR","Zip":"72209"},
{"StreetAddress":"95 Morning Park","City":"Jackson","State":"MS","Zip":"39216"},
{"StreetAddress":"22 Loeprich Hill","City":"Providence","State":"RI","Zip":"02912"},
{"StreetAddress":"60 Shopko Street","City":"Mesa","State":"AZ","Zip":"85205"},
{"StreetAddress":"94594 Northport Plaza","City":"Montgomery","State":"AL","Zip":"36114"},
{"StreetAddress":"19975 Stoughton Drive","City":"Salt Lake City","State":"UT","Zip":"84125"},
{"StreetAddress":"07418 Mayfield Junction","City":"Los Angeles","State":"CA","Zip":"90010"},
{"StreetAddress":"3828 Gerald Drive","City":"Columbus","State":"OH","Zip":"43240"},
{"StreetAddress":"72 Hovde Way","City":"Long Beach","State":"CA","Zip":"90831"},
{"StreetAddress":"5822 Miller Court","City":"Saint Louis","State":"MO","Zip":"63116"},
{"StreetAddress":"9 Monica Lane","City":"Roanoke","State":"VA","Zip":"24040"},
{"StreetAddress":"674 Anthes Crossing","City":"Des Moines","State":"IA","Zip":"50362"},
{"StreetAddress":"3875 Pierstorff Trail","City":"Springfield","State":"IL","Zip":"62711"},
{"StreetAddress":"3 Raven Crossing","City":"Washington","State":"DC","Zip":"20425"},
{"StreetAddress":"163 4th Road","City":"Charleston","State":"WV","Zip":"25336"},
{"StreetAddress":"82271 Fairfield Parkway","City":"Grand Rapids","State":"MI","Zip":"49518"},
{"StreetAddress":"85 American Pass","City":"Seattle","State":"WA","Zip":"98195"},
{"StreetAddress":"40 Fordem Plaza","City":"Lynn","State":"MA","Zip":"01905"},
{"StreetAddress":"061 Reinke Trail","City":"Washington","State":"DC","Zip":"20005"},
{"StreetAddress":"149 Annamark Center","City":"Reading","State":"PA","Zip":"19610"},
{"StreetAddress":"30930 Bunker Hill Road","City":"Bakersfield","State":"CA","Zip":"93381"},
{"StreetAddress":"83754 Esker Lane","City":"Dallas","State":"TX","Zip":"75372"},
{"StreetAddress":"70 Corben Center","City":"San Diego","State":"CA","Zip":"92153"},
{"StreetAddress":"4485 Grover Way","City":"Austin","State":"TX","Zip":"78737"},
{"StreetAddress":"4682 Utah Street","City":"El Paso","State":"TX","Zip":"88574"},
{"StreetAddress":"47685 6th Parkway","City":"New Haven","State":"CT","Zip":"06533"},
{"StreetAddress":"9257 Sage Road","City":"Tucson","State":"AZ","Zip":"85715"},
{"StreetAddress":"5 Bellgrove Parkway","City":"Hartford","State":"CT","Zip":"06183"},
{"StreetAddress":"8 Waywood Trail","City":"Worcester","State":"MA","Zip":"01654"},
{"StreetAddress":"3766 Rieder Trail","City":"Fort Wayne","State":"IN","Zip":"46814"},
{"StreetAddress":"3 Bashford Avenue","City":"Columbia","State":"SC","Zip":"29225"},
{"StreetAddress":"327 Homewood Street","City":"Harrisburg","State":"PA","Zip":"17140"},
{"StreetAddress":"5377 Riverside Point","City":"Van Nuys","State":"CA","Zip":"91411"},
{"StreetAddress":"8 Hollow Ridge Lane","City":"Boston","State":"MA","Zip":"02109"},
{"StreetAddress":"17266 Donald Lane","City":"Houston","State":"TX","Zip":"77266"},
{"StreetAddress":"94 Utah Crossing","City":"Cincinnati","State":"OH","Zip":"45238"},
{"StreetAddress":"8000 Eastlawn Circle","City":"Jackson","State":"MS","Zip":"39282"},
{"StreetAddress":"461 Luster Place","City":"Young America","State":"MN","Zip":"55564"},
{"StreetAddress":"97757 Waxwing Park","City":"Dallas","State":"TX","Zip":"75231"},
{"StreetAddress":"011 Anthes Pass","City":"Corpus Christi","State":"TX","Zip":"78410"},
{"StreetAddress":"87 Canary Plaza","City":"Daytona Beach","State":"FL","Zip":"32128"},
{"StreetAddress":"56 Eagan Terrace","City":"Salt Lake City","State":"UT","Zip":"84135"},
{"StreetAddress":"74779 Michigan Terrace","City":"Atlanta","State":"GA","Zip":"31196"},
{"StreetAddress":"58 Oriole Road","City":"Albany","State":"NY","Zip":"12247"},
{"StreetAddress":"9533 Emmet Parkway","City":"Chicago","State":"IL","Zip":"60657"},
{"StreetAddress":"91700 Schlimgen Pass","City":"Los Angeles","State":"CA","Zip":"90020"},
{"StreetAddress":"79127 Drewry Avenue","City":"Salem","State":"OR","Zip":"97312"},
{"StreetAddress":"419 Scofield Road","City":"Minneapolis","State":"MN","Zip":"55446"},
{"StreetAddress":"871 Fieldstone Crossing","City":"Portland","State":"OR","Zip":"97201"},
{"StreetAddress":"0572 Lyons Terrace","City":"Louisville","State":"KY","Zip":"40210"},
{"StreetAddress":"7 Farragut Court","City":"Winston Salem","State":"NC","Zip":"27105"},
{"StreetAddress":"44 Delladonna Terrace","City":"Gainesville","State":"FL","Zip":"32610"},
{"StreetAddress":"2957 Jana Crossing","City":"Amarillo","State":"TX","Zip":"79116"},
{"StreetAddress":"6253 Valley Edge Hill","City":"Baltimore","State":"MD","Zip":"21239"},
{"StreetAddress":"5 Stoughton Parkway","City":"Syracuse","State":"NY","Zip":"13224"},
{"StreetAddress":"3852 Golf Plaza","City":"Baltimore","State":"MD","Zip":"21290"},
{"StreetAddress":"2 Tony Plaza","City":"Prescott","State":"AZ","Zip":"86305"},
{"StreetAddress":"8 Spaight Parkway","City":"Edmond","State":"OK","Zip":"73034"},
{"StreetAddress":"01817 Cody Lane","City":"Springfield","State":"MA","Zip":"01152"},
{"StreetAddress":"4 Cottonwood Park","City":"Los Angeles","State":"CA","Zip":"90040"},
{"StreetAddress":"81 Center Crossing","City":"Columbia","State":"SC","Zip":"29220"},
{"StreetAddress":"023 Jackson Park","City":"Saint Petersburg","State":"FL","Zip":"33705"},
{"StreetAddress":"4780 Bartillon Junction","City":"Saint Louis","State":"MO","Zip":"63104"},
{"StreetAddress":"0 Ridge Oak Way","City":"Indianapolis","State":"IN","Zip":"46207"},
{"StreetAddress":"7 Arizona Lane","City":"South Bend","State":"IN","Zip":"46614"},
{"StreetAddress":"88 Jackson Avenue","City":"Spartanburg","State":"SC","Zip":"29305"},
{"StreetAddress":"4 Muir Street","City":"Denver","State":"CO","Zip":"80204"},
{"StreetAddress":"431 Nova Crossing","City":"Redwood City","State":"CA","Zip":"94064"},
{"StreetAddress":"80870 Park Meadow Point","City":"Hattiesburg","State":"MS","Zip":"39404"},
{"StreetAddress":"41796 Cambridge Alley","City":"Nashville","State":"TN","Zip":"37235"},
{"StreetAddress":"8658 Knutson Crossing","City":"Denver","State":"CO","Zip":"80262"},
{"StreetAddress":"8 Moulton Center","City":"Fargo","State":"ND","Zip":"58106"},
{"StreetAddress":"325 Fair Oaks Center","City":"Indianapolis","State":"IN","Zip":"46266"},
{"StreetAddress":"488 Brown Parkway","City":"Corpus Christi","State":"TX","Zip":"78470"},
{"StreetAddress":"345 Westport Avenue","City":"Staten Island","State":"NY","Zip":"10305"},
{"StreetAddress":"8 Texas Terrace","City":"Peoria","State":"IL","Zip":"61651"},
{"StreetAddress":"599 Oakridge Trail","City":"Los Angeles","State":"CA","Zip":"90087"},
{"StreetAddress":"116 Sutteridge Terrace","City":"Baltimore","State":"MD","Zip":"21203"},
{"StreetAddress":"02 Donald Place","City":"Phoenix","State":"AZ","Zip":"85020"},
{"StreetAddress":"8 Tennessee Center","City":"Boston","State":"MA","Zip":"02283"},
{"StreetAddress":"07 Carioca Terrace","City":"Harrisburg","State":"PA","Zip":"17126"},
{"StreetAddress":"43 Melby Alley","City":"Tulsa","State":"OK","Zip":"74133"},
{"StreetAddress":"7311 Dottie Point","City":"Springfield","State":"IL","Zip":"62776"},
{"StreetAddress":"40316 Grayhawk Junction","City":"Oxnard","State":"CA","Zip":"93034"},
{"StreetAddress":"11 7th Center","City":"New York City","State":"NY","Zip":"10009"},
{"StreetAddress":"3654 Ruskin Court","City":"Houston","State":"TX","Zip":"77245"},
{"StreetAddress":"0 Johnson Point","City":"Wichita","State":"KS","Zip":"67236"},
{"StreetAddress":"02463 Hanson Court","City":"Eugene","State":"OR","Zip":"97405"},
{"StreetAddress":"40524 Eastlawn Center","City":"Fairfield","State":"CT","Zip":"06825"},
{"StreetAddress":"50 Kim Junction","City":"Oakland","State":"CA","Zip":"94660"},
{"StreetAddress":"02 Shasta Pass","City":"Torrance","State":"CA","Zip":"90510"},
{"StreetAddress":"8434 Claremont Road","City":"Tampa","State":"FL","Zip":"33673"},
{"StreetAddress":"8 Manitowish Alley","City":"Philadelphia","State":"PA","Zip":"19141"},
{"StreetAddress":"6 Pearson Avenue","City":"El Paso","State":"TX","Zip":"79911"},
{"StreetAddress":"47731 Clyde Gallagher Street","City":"Lynchburg","State":"VA","Zip":"24503"},
{"StreetAddress":"63 Chive Place","City":"Sterling","State":"VA","Zip":"20167"},
{"StreetAddress":"836 Knutson Crossing","City":"Lansing","State":"MI","Zip":"48901"},
{"StreetAddress":"14282 Hovde Drive","City":"Albuquerque","State":"NM","Zip":"87121"},
{"StreetAddress":"485 Hanson Hill","City":"New York City","State":"NY","Zip":"10125"},
{"StreetAddress":"7777 Cardinal Drive","City":"Saint Paul","State":"MN","Zip":"55146"},
{"StreetAddress":"53499 Lawn Terrace","City":"Shreveport","State":"LA","Zip":"71115"},
{"StreetAddress":"169 Mayfield Point","City":"Dallas","State":"TX","Zip":"75231"},
{"StreetAddress":"61 1st Street","City":"West Palm Beach","State":"FL","Zip":"33416"},
{"StreetAddress":"8195 Killdeer Avenue","City":"New York City","State":"NY","Zip":"10110"},
{"StreetAddress":"09 Loeprich Park","City":"New Haven","State":"CT","Zip":"06510"},
{"StreetAddress":"5492 Dottie Avenue","City":"Tucson","State":"AZ","Zip":"85725"},
{"StreetAddress":"795 Cottonwood Avenue","City":"Chicago","State":"IL","Zip":"60663"},
{"StreetAddress":"99 Laurel Trail","City":"New Orleans","State":"LA","Zip":"70160"},
{"StreetAddress":"5109 Blue Bill Park Trail","City":"Sacramento","State":"CA","Zip":"95894"},
{"StreetAddress":"249 Southridge Park","City":"El Paso","State":"TX","Zip":"79955"},
{"StreetAddress":"8 Lake View Park","City":"Tucson","State":"AZ","Zip":"85743"},
{"StreetAddress":"7086 Schlimgen Hill","City":"New Castle","State":"PA","Zip":"16107"},
{"StreetAddress":"572 Grim Terrace","City":"Wilmington","State":"DE","Zip":"19886"},
{"StreetAddress":"7594 Porter Crossing","City":"Sterling","State":"VA","Zip":"20167"},
{"StreetAddress":"56509 Anniversary Avenue","City":"Denver","State":"CO","Zip":"80291"},
{"StreetAddress":"71 Washington Street","City":"Redwood City","State":"CA","Zip":"94064"},
{"StreetAddress":"8 John Wall Drive","City":"Reno","State":"NV","Zip":"89519"},
{"StreetAddress":"3 Norway Maple Junction","City":"San Bernardino","State":"CA","Zip":"92424"},
{"StreetAddress":"080 Melrose Hill","City":"Bethesda","State":"MD","Zip":"20816"},
{"StreetAddress":"94919 Shasta Plaza","City":"Chico","State":"CA","Zip":"95973"},
{"StreetAddress":"66 Prairieview Point","City":"Augusta","State":"GA","Zip":"30911"},
{"StreetAddress":"1564 Hagan Parkway","City":"Mobile","State":"AL","Zip":"36670"},
{"StreetAddress":"6 Di Loreto Place","City":"Vancouver","State":"WA","Zip":"98664"},
{"StreetAddress":"523 Meadow Ridge Street","City":"Lubbock","State":"TX","Zip":"79452"},
{"StreetAddress":"99049 Cottonwood Place","City":"Denver","State":"CO","Zip":"80291"},
{"StreetAddress":"820 Vera Lane","City":"Spokane","State":"WA","Zip":"99210"},
{"StreetAddress":"687 5th Parkway","City":"Albuquerque","State":"NM","Zip":"87140"},
{"StreetAddress":"87428 Londonderry Road","City":"Lansing","State":"MI","Zip":"48919"},
{"StreetAddress":"11522 Forest Pass","City":"Riverside","State":"CA","Zip":"92513"},
{"StreetAddress":"29951 North Road","City":"El Paso","State":"TX","Zip":"79945"},
{"StreetAddress":"9 Center Terrace","City":"Nashville","State":"TN","Zip":"37210"},
{"StreetAddress":"975 Kinsman Pass","City":"Milwaukee","State":"WI","Zip":"53210"},
{"StreetAddress":"425 Cottonwood Center","City":"Alpharetta","State":"GA","Zip":"30022"},
{"StreetAddress":"6027 Thackeray Court","City":"Fort Pierce","State":"FL","Zip":"34981"},
{"StreetAddress":"0050 Shopko Park","City":"Fort Lauderdale","State":"FL","Zip":"33305"},
{"StreetAddress":"308 East Crossing","City":"San Antonio","State":"TX","Zip":"78255"},
{"StreetAddress":"46 Summer Ridge Junction","City":"Atlanta","State":"GA","Zip":"30392"},
{"StreetAddress":"2570 Mayer Center","City":"Houston","State":"TX","Zip":"77010"},
{"StreetAddress":"3 Red Cloud Lane","City":"Peoria","State":"IL","Zip":"61635"},
{"StreetAddress":"706 Ilene Pass","City":"Virginia Beach","State":"VA","Zip":"23471"},
{"StreetAddress":"765 Luster Lane","City":"Wilkes Barre","State":"PA","Zip":"18763"},
{"StreetAddress":"05 Meadow Valley Circle","City":"Philadelphia","State":"PA","Zip":"19172"},
{"StreetAddress":"05435 Corry Alley","City":"Largo","State":"FL","Zip":"34643"},
{"StreetAddress":"9 Oneill Junction","City":"Glendale","State":"CA","Zip":"91205"},
{"StreetAddress":"8 Delladonna Parkway","City":"Carol Stream","State":"IL","Zip":"60351"},
{"StreetAddress":"09707 Heffernan Way","City":"Columbia","State":"SC","Zip":"29208"},
{"StreetAddress":"777 Cherokee Trail","City":"Modesto","State":"CA","Zip":"95354"},
{"StreetAddress":"11529 Pierstorff Court","City":"New York City","State":"NY","Zip":"10260"},
{"StreetAddress":"5782 Ilene Hill","City":"Hampton","State":"VA","Zip":"23668"},
{"StreetAddress":"0104 Florence Trail","City":"Atlanta","State":"GA","Zip":"31190"},
{"StreetAddress":"442 5th Pass","City":"Toledo","State":"OH","Zip":"43610"},
{"StreetAddress":"261 Dahle Point","City":"New York City","State":"NY","Zip":"10203"},
{"StreetAddress":"56 Fremont Place","City":"Bronx","State":"NY","Zip":"10464"},
{"StreetAddress":"46727 Ronald Regan Place","City":"North Hollywood","State":"CA","Zip":"91616"},
{"StreetAddress":"1 Sutteridge Street","City":"Charleston","State":"SC","Zip":"29411"},
{"StreetAddress":"3773 Eastwood Plaza","City":"Oklahoma City","State":"OK","Zip":"73114"},
{"StreetAddress":"3 Clarendon Junction","City":"Allentown","State":"PA","Zip":"18105"},
{"StreetAddress":"7572 Montana Circle","City":"Shreveport","State":"LA","Zip":"71166"},
{"StreetAddress":"85 Memorial Lane","City":"Hagerstown","State":"MD","Zip":"21747"},
{"StreetAddress":"5080 Grim Crossing","City":"Lakewood","State":"WA","Zip":"98498"},
{"StreetAddress":"08247 Heffernan Trail","City":"Richmond","State":"VA","Zip":"23293"},
{"StreetAddress":"8632 Mcguire Avenue","City":"Monroe","State":"LA","Zip":"71208"},
{"StreetAddress":"6 Warrior Road","City":"Chattanooga","State":"TN","Zip":"37405"},
{"StreetAddress":"793 Marquette Hill","City":"Springfield","State":"MA","Zip":"01152"},
{"StreetAddress":"0773 Roth Point","City":"Boca Raton","State":"FL","Zip":"33432"},
{"StreetAddress":"58 Hooker Point","City":"Kansas City","State":"MO","Zip":"64125"},
{"StreetAddress":"23 Arkansas Park","City":"Salt Lake City","State":"UT","Zip":"84120"},
{"StreetAddress":"0 Anhalt Lane","City":"Young America","State":"MN","Zip":"55551"},
{"StreetAddress":"457 Goodland Parkway","City":"Trenton","State":"NJ","Zip":"08619"},
{"StreetAddress":"4337 Annamark Junction","City":"Albany","State":"NY","Zip":"12232"},
{"StreetAddress":"37 Anderson Circle","City":"Rochester","State":"NY","Zip":"14619"},
{"StreetAddress":"775 Crownhardt Alley","City":"Henderson","State":"NV","Zip":"89012"},
{"StreetAddress":"721 Manley Alley","City":"Kalamazoo","State":"MI","Zip":"49048"},
{"StreetAddress":"13798 Mccormick Pass","City":"Saint Louis","State":"MO","Zip":"63116"},
{"StreetAddress":"4058 Elka Point","City":"Saint Louis","State":"MO","Zip":"63180"},
{"StreetAddress":"8 Mendota Way","City":"Whittier","State":"CA","Zip":"90605"},
{"StreetAddress":"1043 Lerdahl Pass","City":"Anderson","State":"SC","Zip":"29625"},
{"StreetAddress":"3472 Washington Center","City":"Richmond","State":"VA","Zip":"23213"},
{"StreetAddress":"73014 Waywood Avenue","City":"Independence","State":"MO","Zip":"64054"},
{"StreetAddress":"56837 Eagan Parkway","City":"Decatur","State":"IL","Zip":"62525"},
{"StreetAddress":"46 Ryan Place","City":"Mobile","State":"AL","Zip":"36622"},
{"StreetAddress":"14115 Reinke Court","City":"Brooklyn","State":"NY","Zip":"11236"},
{"StreetAddress":"00750 Holy Cross Center","City":"Atlanta","State":"GA","Zip":"30380"},
{"StreetAddress":"18296 Schlimgen Way","City":"Lynchburg","State":"VA","Zip":"24515"},
{"StreetAddress":"13197 Iowa Plaza","City":"Lima","State":"OH","Zip":"45807"},
{"StreetAddress":"924 Forest Dale Alley","City":"Richmond","State":"VA","Zip":"23208"},
{"StreetAddress":"2 Buhler Terrace","City":"Savannah","State":"GA","Zip":"31410"},
{"StreetAddress":"152 Express Crossing","City":"Portland","State":"OR","Zip":"97201"},
{"StreetAddress":"92 Monument Lane","City":"Cincinnati","State":"OH","Zip":"45203"},
{"StreetAddress":"7 Trailsway Center","City":"Springfield","State":"VA","Zip":"22156"},
{"StreetAddress":"91278 Arapahoe Junction","City":"Houston","State":"TX","Zip":"77065"},
{"StreetAddress":"81 Monterey Crossing","City":"Jacksonville","State":"FL","Zip":"32277"},
{"StreetAddress":"1 Hauk Circle","City":"Orange","State":"CA","Zip":"92862"},
{"StreetAddress":"7388 Northland Park","City":"New York City","State":"NY","Zip":"10024"},
{"StreetAddress":"130 Browning Junction","City":"North Little Rock","State":"AR","Zip":"72118"},
{"StreetAddress":"383 Sycamore Avenue","City":"Irvine","State":"CA","Zip":"92717"},
{"StreetAddress":"2 Moose Crossing","City":"Henderson","State":"NV","Zip":"89012"},
{"StreetAddress":"40777 Hudson Lane","City":"Fort Lauderdale","State":"FL","Zip":"33336"},
{"StreetAddress":"52 Anderson Junction","City":"Carol Stream","State":"IL","Zip":"60351"},
{"StreetAddress":"3 1st Pass","City":"Alexandria","State":"VA","Zip":"22313"},
{"StreetAddress":"541 Lawn Hill","City":"Birmingham","State":"AL","Zip":"35295"},
{"StreetAddress":"73 Main Court","City":"Washington","State":"DC","Zip":"20220"},
{"StreetAddress":"2280 Little Fleur Avenue","City":"Brockton","State":"MA","Zip":"02305"},
{"StreetAddress":"11 Tomscot Parkway","City":"Minneapolis","State":"MN","Zip":"55407"},
{"StreetAddress":"74599 Warbler Crossing","City":"Bakersfield","State":"CA","Zip":"93381"},
{"StreetAddress":"63938 Dennis Alley","City":"Concord","State":"CA","Zip":"94522"},
{"StreetAddress":"572 Prairie Rose Alley","City":"Wilmington","State":"DE","Zip":"19886"},
{"StreetAddress":"3238 Alpine Hill","City":"Denver","State":"CO","Zip":"80249"},
{"StreetAddress":"939 Randy Road","City":"Roanoke","State":"VA","Zip":"24040"},
{"StreetAddress":"36715 Toban Street","City":"Fort Lauderdale","State":"FL","Zip":"33320"},
{"StreetAddress":"64 Armistice Center","City":"Anchorage","State":"AK","Zip":"99599"},
{"StreetAddress":"3129 Browning Avenue","City":"Boston","State":"MA","Zip":"02283"},
{"StreetAddress":"26 Acker Court","City":"Orlando","State":"FL","Zip":"32868"},
{"StreetAddress":"8 Michigan Center","City":"Washington","State":"DC","Zip":"20414"},
{"StreetAddress":"68809 Pawling Junction","City":"El Paso","State":"TX","Zip":"88525"},
{"StreetAddress":"2 Southridge Avenue","City":"New York City","State":"NY","Zip":"10280"},
{"StreetAddress":"63 Roth Hill","City":"Pasadena","State":"CA","Zip":"91131"},
{"StreetAddress":"8161 Fair Oaks Lane","City":"Philadelphia","State":"PA","Zip":"19141"},
{"StreetAddress":"553 Northfield Plaza","City":"Phoenix","State":"AZ","Zip":"85045"},
{"StreetAddress":"61758 Leroy Avenue","City":"Dallas","State":"TX","Zip":"75397"},
{"StreetAddress":"145 Shasta Junction","City":"Harrisburg","State":"PA","Zip":"17121"},
{"StreetAddress":"4268 Armistice Junction","City":"Austin","State":"TX","Zip":"78778"},
{"StreetAddress":"47 Katie Court","City":"Orlando","State":"FL","Zip":"32835"},
{"StreetAddress":"682 Annamark Drive","City":"New York City","State":"NY","Zip":"10184"},
{"StreetAddress":"312 Ridge Oak Court","City":"Minneapolis","State":"MN","Zip":"55428"},
{"StreetAddress":"8 Alpine Junction","City":"Glendale","State":"AZ","Zip":"85305"},
{"StreetAddress":"44446 Mosinee Park","City":"Amarillo","State":"TX","Zip":"79171"},
{"StreetAddress":"9920 East Park","City":"Houston","State":"TX","Zip":"77260"},
{"StreetAddress":"32962 Maple Point","City":"Daytona Beach","State":"FL","Zip":"32128"},
{"StreetAddress":"5493 Larry Hill","City":"Santa Rosa","State":"CA","Zip":"95405"},
{"StreetAddress":"4 Summerview Drive","City":"Wilmington","State":"DE","Zip":"19897"},
{"StreetAddress":"702 Drewry Hill","City":"Baton Rouge","State":"LA","Zip":"70883"},
{"StreetAddress":"966 Gale Parkway","City":"Newark","State":"NJ","Zip":"07195"},
{"StreetAddress":"31 Grayhawk Parkway","City":"Amarillo","State":"TX","Zip":"79188"},
{"StreetAddress":"1388 Del Sol Drive","City":"Sacramento","State":"CA","Zip":"95894"},
{"StreetAddress":"3400 Montana Court","City":"Schenectady","State":"NY","Zip":"12325"},
{"StreetAddress":"12370 Myrtle Terrace","City":"Pasadena","State":"CA","Zip":"91199"},
{"StreetAddress":"4 Holmberg Pass","City":"Amarillo","State":"TX","Zip":"79188"},
{"StreetAddress":"5415 Valley Edge Road","City":"Staten Island","State":"NY","Zip":"10305"},
{"StreetAddress":"1179 Kedzie Avenue","City":"Gaithersburg","State":"MD","Zip":"20883"},
{"StreetAddress":"59 Towne Point","City":"Austin","State":"TX","Zip":"78754"},
{"StreetAddress":"21316 Forest Dale Way","City":"El Paso","State":"TX","Zip":"79934"},
{"StreetAddress":"614 Park Meadow Point","City":"Los Angeles","State":"CA","Zip":"90010"},
{"StreetAddress":"1 Grayhawk Trail","City":"Kansas City","State":"MO","Zip":"64179"},
{"StreetAddress":"0 Mitchell Way","City":"Miami","State":"FL","Zip":"33190"},
{"StreetAddress":"4992 American Circle","City":"Washington","State":"DC","Zip":"20016"},
{"StreetAddress":"89825 Myrtle Park","City":"Roanoke","State":"VA","Zip":"24040"},
{"StreetAddress":"79472 Fulton Lane","City":"San Diego","State":"CA","Zip":"92196"},
{"StreetAddress":"21136 Menomonie Road","City":"San Jose","State":"CA","Zip":"95155"},
{"StreetAddress":"9 Ohio Court","City":"Fort Smith","State":"AR","Zip":"72905"},
{"StreetAddress":"1 Dawn Road","City":"Portland","State":"OR","Zip":"97232"},
{"StreetAddress":"842 Twin Pines Center","City":"Las Vegas","State":"NV","Zip":"89110"},
{"StreetAddress":"375 Packers Junction","City":"Houston","State":"TX","Zip":"77218"},
{"StreetAddress":"8 Ruskin Court","City":"Shreveport","State":"LA","Zip":"71151"},
{"StreetAddress":"22830 Golf Course Park","City":"Biloxi","State":"MS","Zip":"39534"},
{"StreetAddress":"1174 Clarendon Circle","City":"San Antonio","State":"TX","Zip":"78230"},
{"StreetAddress":"58142 Sunbrook Road","City":"Clearwater","State":"FL","Zip":"33763"},
{"StreetAddress":"8 Londonderry Trail","City":"Washington","State":"DC","Zip":"20260"},
{"StreetAddress":"788 American Circle","City":"Denver","State":"CO","Zip":"80209"},
{"StreetAddress":"4678 David Place","City":"Phoenix","State":"AZ","Zip":"85030"},
{"StreetAddress":"32 Golf Course Terrace","City":"Boston","State":"MA","Zip":"02109"},
{"StreetAddress":"5 Delladonna Road","City":"Des Moines","State":"IA","Zip":"50981"},
{"StreetAddress":"07679 South Circle","City":"Sacramento","State":"CA","Zip":"94291"},
{"StreetAddress":"2 Oneill Point","City":"New York City","State":"NY","Zip":"10120"},
{"StreetAddress":"25 Union Road","City":"Washington","State":"DC","Zip":"56944"},
{"StreetAddress":"767 Hoffman Plaza","City":"Las Vegas","State":"NV","Zip":"89193"},
{"StreetAddress":"45 Pankratz Plaza","City":"Houston","State":"TX","Zip":"77095"},
{"StreetAddress":"59 Buell Circle","City":"Fort Lauderdale","State":"FL","Zip":"33325"},
{"StreetAddress":"6493 Cordelia Plaza","City":"Carlsbad","State":"CA","Zip":"92013"},
{"StreetAddress":"475 Arkansas Avenue","City":"Kingsport","State":"TN","Zip":"37665"},
{"StreetAddress":"9675 High Crossing Crossing","City":"Mesa","State":"AZ","Zip":"85210"},
{"StreetAddress":"027 Stone Corner Road","City":"Spokane","State":"WA","Zip":"99210"},
{"StreetAddress":"687 Anhalt Avenue","City":"Nashville","State":"TN","Zip":"37215"},
{"StreetAddress":"97028 Holy Cross Place","City":"Santa Rosa","State":"CA","Zip":"95405"},
{"StreetAddress":"3708 Lighthouse Bay Place","City":"Akron","State":"OH","Zip":"44315"},
{"StreetAddress":"0 7th Court","City":"New York City","State":"NY","Zip":"10034"},
{"StreetAddress":"8 Mariners Cove Trail","City":"Louisville","State":"KY","Zip":"40233"},
{"StreetAddress":"2 Orin Avenue","City":"Charlotte","State":"NC","Zip":"28215"},
{"StreetAddress":"8 Waxwing Circle","City":"Clearwater","State":"FL","Zip":"33758"},
{"StreetAddress":"0 3rd Alley","City":"Fresno","State":"CA","Zip":"93778"},
{"StreetAddress":"4503 1st Park","City":"Laurel","State":"MD","Zip":"20709"},
{"StreetAddress":"71 Mifflin Lane","City":"Charleston","State":"WV","Zip":"25389"},
{"StreetAddress":"3 Anthes Circle","City":"Orlando","State":"FL","Zip":"32835"},
{"StreetAddress":"852 Drewry Crossing","City":"Washington","State":"DC","Zip":"20073"},
{"StreetAddress":"4 Mallard Street","City":"Cincinnati","State":"OH","Zip":"45271"},
{"StreetAddress":"85189 Red Cloud Drive","City":"Harrisburg","State":"PA","Zip":"17110"},
{"StreetAddress":"57 Utah Lane","City":"Des Moines","State":"IA","Zip":"50335"},
{"StreetAddress":"37930 Tomscot Alley","City":"Sacramento","State":"CA","Zip":"95828"},
{"StreetAddress":"66341 Helena Drive","City":"Hampton","State":"VA","Zip":"23668"},
{"StreetAddress":"4 Lakewood Road","City":"Sparks","State":"NV","Zip":"89436"},
{"StreetAddress":"63320 Cascade Circle","City":"Jersey City","State":"NJ","Zip":"07310"},
{"StreetAddress":"267 Summerview Center","City":"Grand Rapids","State":"MI","Zip":"49560"},
{"StreetAddress":"417 Golf Course Circle","City":"Hartford","State":"CT","Zip":"06120"},
{"StreetAddress":"29 Dakota Street","City":"Birmingham","State":"AL","Zip":"35254"},
{"StreetAddress":"49699 Ryan Lane","City":"Norfolk","State":"VA","Zip":"23504"},
{"StreetAddress":"8966 Schmedeman Junction","City":"Los Angeles","State":"CA","Zip":"90015"},
{"StreetAddress":"1465 Debs Alley","City":"Greensboro","State":"NC","Zip":"27404"},
{"StreetAddress":"72006 Luster Crossing","City":"Mesquite","State":"TX","Zip":"75185"},
{"StreetAddress":"528 Packers Avenue","City":"Miami","State":"FL","Zip":"33283"},
{"StreetAddress":"23554 Crownhardt Plaza","City":"Saint Louis","State":"MO","Zip":"63143"},
{"StreetAddress":"05 Summerview Plaza","City":"Bozeman","State":"MT","Zip":"59771"},
{"StreetAddress":"8 Dakota Park","City":"New Orleans","State":"LA","Zip":"70142"},
{"StreetAddress":"94815 Old Gate Point","City":"Orange","State":"CA","Zip":"92668"},
{"StreetAddress":"917 Transport Pass","City":"Des Moines","State":"IA","Zip":"50315"},
{"StreetAddress":"009 Reinke Crossing","City":"Johnstown","State":"PA","Zip":"15906"},
{"StreetAddress":"9 Rowland Parkway","City":"Sacramento","State":"CA","Zip":"94245"},
{"StreetAddress":"441 Bobwhite Hill","City":"Tulsa","State":"OK","Zip":"74156"},
{"StreetAddress":"592 Oak Valley Parkway","City":"Brea","State":"CA","Zip":"92822"},
{"StreetAddress":"50467 Pennsylvania Drive","City":"San Diego","State":"CA","Zip":"92186"},
{"StreetAddress":"8 Hayes Avenue","City":"Zephyrhills","State":"FL","Zip":"33543"},
{"StreetAddress":"58530 Bultman Street","City":"Greeley","State":"CO","Zip":"80638"},
{"StreetAddress":"736 Springview Terrace","City":"Orange","State":"CA","Zip":"92668"},
{"StreetAddress":"70175 Nelson Hill","City":"Houston","State":"TX","Zip":"77250"},
{"StreetAddress":"64355 Vernon Crossing","City":"Omaha","State":"NE","Zip":"68105"},
{"StreetAddress":"41 Division Court","City":"Saginaw","State":"MI","Zip":"48609"},
{"StreetAddress":"03 Cordelia Drive","City":"Providence","State":"RI","Zip":"02905"},
{"StreetAddress":"79 Redwing Court","City":"Minneapolis","State":"MN","Zip":"55423"},
{"StreetAddress":"25 Green Junction","City":"Baton Rouge","State":"LA","Zip":"70836"},
{"StreetAddress":"7397 Transport Park","City":"San Francisco","State":"CA","Zip":"94164"},
{"StreetAddress":"66952 Debra Pass","City":"Idaho Falls","State":"ID","Zip":"83405"},
{"StreetAddress":"8665 Raven Lane","City":"Gulfport","State":"MS","Zip":"39505"},
{"StreetAddress":"894 Amoth Court","City":"Albuquerque","State":"NM","Zip":"87115"},
{"StreetAddress":"205 Union Hill","City":"Washington","State":"DC","Zip":"20580"},
{"StreetAddress":"1 Di Loreto Lane","City":"Phoenix","State":"AZ","Zip":"85077"},
{"StreetAddress":"35 Bonner Avenue","City":"Whittier","State":"CA","Zip":"90610"},
{"StreetAddress":"458 Calypso Place","City":"Glendale","State":"CA","Zip":"91210"},
{"StreetAddress":"47913 Cardinal Drive","City":"Houston","State":"TX","Zip":"77245"},
{"StreetAddress":"2 Washington Terrace","City":"Topeka","State":"KS","Zip":"66642"},
{"StreetAddress":"249 Clove Court","City":"Milwaukee","State":"WI","Zip":"53210"},
{"StreetAddress":"1 Arizona Center","City":"Columbia","State":"SC","Zip":"29225"},
{"StreetAddress":"41 Lakeland Crossing","City":"Washington","State":"DC","Zip":"20046"},
{"StreetAddress":"6959 Moulton Crossing","City":"Mesa","State":"AZ","Zip":"85210"},
{"StreetAddress":"1 International Hill","City":"Pompano Beach","State":"FL","Zip":"33075"},
{"StreetAddress":"8 Walton Trail","City":"Miami","State":"FL","Zip":"33129"},
{"StreetAddress":"84 Shelley Point","City":"Fresno","State":"CA","Zip":"93715"},
{"StreetAddress":"08 Algoma Crossing","City":"Wichita","State":"KS","Zip":"67260"},
{"StreetAddress":"6565 Dorton Junction","City":"Salt Lake City","State":"UT","Zip":"84110"},
{"StreetAddress":"96332 Marcy Terrace","City":"New York City","State":"NY","Zip":"10024"},
{"StreetAddress":"68897 Claremont Parkway","City":"Boise","State":"ID","Zip":"83705"},
{"StreetAddress":"3104 Warrior Trail","City":"Baton Rouge","State":"LA","Zip":"70810"},
{"StreetAddress":"9750 Bayside Point","City":"Columbia","State":"MO","Zip":"65218"},
{"StreetAddress":"2397 Schiller Pass","City":"Rochester","State":"NY","Zip":"14619"},
{"StreetAddress":"2 Springs Drive","City":"Washington","State":"DC","Zip":"20231"},
{"StreetAddress":"526 Lindbergh Plaza","City":"Roanoke","State":"VA","Zip":"24024"},
{"StreetAddress":"9907 Mallory Place","City":"Orlando","State":"FL","Zip":"32859"},
{"StreetAddress":"8479 Sunbrook Center","City":"Canton","State":"OH","Zip":"44760"},
{"StreetAddress":"45144 Macpherson Alley","City":"Pittsburgh","State":"PA","Zip":"15235"},
{"StreetAddress":"0154 Grover Way","City":"Richmond","State":"VA","Zip":"23203"},
{"StreetAddress":"689 Myrtle Court","City":"Atlanta","State":"GA","Zip":"30351"},
{"StreetAddress":"0098 Lindbergh Road","City":"Honolulu","State":"HI","Zip":"96820"},
{"StreetAddress":"97566 Anthes Crossing","City":"Evansville","State":"IN","Zip":"47737"},
{"StreetAddress":"6340 Menomonie Drive","City":"San Bernardino","State":"CA","Zip":"92405"},
{"StreetAddress":"4 Basil Drive","City":"Greensboro","State":"NC","Zip":"27404"},
{"StreetAddress":"659 Sunnyside Court","City":"Cincinnati","State":"OH","Zip":"45233"},
{"StreetAddress":"3 Warrior Circle","City":"Tulsa","State":"OK","Zip":"74133"},
{"StreetAddress":"26 Lerdahl Court","City":"London","State":"KY","Zip":"40745"},
{"StreetAddress":"8 Declaration Parkway","City":"Detroit","State":"MI","Zip":"48211"},
{"StreetAddress":"14 Longview Lane","City":"Chicago","State":"IL","Zip":"60624"},
{"StreetAddress":"491 Mandrake Terrace","City":"Fresno","State":"CA","Zip":"93778"},
{"StreetAddress":"428 Paget Terrace","City":"San Francisco","State":"CA","Zip":"94147"},
{"StreetAddress":"815 Raven Circle","City":"Cumming","State":"GA","Zip":"30130"},
{"StreetAddress":"4 Clarendon Place","City":"Little Rock","State":"AR","Zip":"72209"},
{"StreetAddress":"054 Columbus Drive","City":"Springfield","State":"MA","Zip":"01114"},
{"StreetAddress":"219 Hoepker Way","City":"Huntington","State":"WV","Zip":"25705"},
{"StreetAddress":"13804 David Pass","City":"Reston","State":"VA","Zip":"22096"},
{"StreetAddress":"579 Weeping Birch Park","City":"Vancouver","State":"WA","Zip":"98682"},
{"StreetAddress":"676 Colorado Hill","City":"Metairie","State":"LA","Zip":"70005"},
{"StreetAddress":"95 Magdeline Terrace","City":"Cincinnati","State":"OH","Zip":"45999"},
{"StreetAddress":"1138 Mcguire Drive","City":"Montgomery","State":"AL","Zip":"36125"},
{"StreetAddress":"848 Washington Terrace","City":"New Orleans","State":"LA","Zip":"70160"},
{"StreetAddress":"768 Erie Street","City":"Saint Louis","State":"MO","Zip":"63196"},
{"StreetAddress":"8231 Fisk Avenue","City":"Salt Lake City","State":"UT","Zip":"84120"},
{"StreetAddress":"1 Summerview Avenue","City":"Kansas City","State":"MO","Zip":"64144"},
{"StreetAddress":"98 Eastlawn Crossing","City":"Minneapolis","State":"MN","Zip":"55423"},
{"StreetAddress":"69630 Service Trail","City":"New York City","State":"NY","Zip":"10115"},
{"StreetAddress":"053 Redwing Hill","City":"Kansas City","State":"MO","Zip":"64149"},
{"StreetAddress":"8775 Carpenter Circle","City":"North Little Rock","State":"AR","Zip":"72118"},
{"StreetAddress":"356 Homewood Trail","City":"Houston","State":"TX","Zip":"77045"},
{"StreetAddress":"88 Blackbird Lane","City":"Largo","State":"FL","Zip":"34643"},
{"StreetAddress":"5064 Redwing Court","City":"El Paso","State":"TX","Zip":"79977"},
{"StreetAddress":"9 Hansons Way","City":"Baltimore","State":"MD","Zip":"21239"},
{"StreetAddress":"14802 Continental Trail","City":"Ogden","State":"UT","Zip":"84409"},
{"StreetAddress":"5837 Scoville Center","City":"El Paso","State":"TX","Zip":"88579"},
{"StreetAddress":"6 Schlimgen Lane","City":"New York City","State":"NY","Zip":"10105"},
{"StreetAddress":"76855 Schiller Point","City":"Buffalo","State":"NY","Zip":"14269"},
{"StreetAddress":"76931 Jay Park","City":"Akron","State":"OH","Zip":"44315"},
{"StreetAddress":"00645 Michigan Terrace","City":"Erie","State":"PA","Zip":"16505"},
{"StreetAddress":"49 Talmadge Avenue","City":"Lancaster","State":"PA","Zip":"17622"},
{"StreetAddress":"29 Mayer Drive","City":"Roanoke","State":"VA","Zip":"24048"},
{"StreetAddress":"2277 Kings Lane","City":"Springfield","State":"MA","Zip":"01114"},
{"StreetAddress":"606 Stuart Center","City":"Richmond","State":"VA","Zip":"23220"},
{"StreetAddress":"7438 Mifflin Point","City":"Buffalo","State":"NY","Zip":"14215"},
{"StreetAddress":"34 Clove Place","City":"Long Beach","State":"CA","Zip":"90810"},
{"StreetAddress":"599 Granby Lane","City":"San Jose","State":"CA","Zip":"95173"},
{"StreetAddress":"2376 Jenna Junction","City":"Washington","State":"DC","Zip":"20425"},
{"StreetAddress":"44 Anthes Lane","City":"Tucson","State":"AZ","Zip":"85710"},
{"StreetAddress":"16 La Follette Alley","City":"Lansing","State":"MI","Zip":"48919"},
{"StreetAddress":"5548 Evergreen Junction","City":"Round Rock","State":"TX","Zip":"78682"},
{"StreetAddress":"6 Badeau Crossing","City":"Lakeland","State":"FL","Zip":"33811"},
{"StreetAddress":"75 Anniversary Plaza","City":"Detroit","State":"MI","Zip":"48217"},
{"StreetAddress":"1075 American Ash Lane","City":"Bronx","State":"NY","Zip":"10474"},
{"StreetAddress":"50589 Holmberg Alley","City":"Tampa","State":"FL","Zip":"33625"},
{"StreetAddress":"59 Mariners Cove Plaza","City":"Minneapolis","State":"MN","Zip":"55436"},
{"StreetAddress":"6 Jay Point","City":"Springfield","State":"IL","Zip":"62776"},
{"StreetAddress":"77 Calypso Lane","City":"New York City","State":"NY","Zip":"10270"},
{"StreetAddress":"18668 Steensland Lane","City":"Memphis","State":"TN","Zip":"38104"},
{"StreetAddress":"479 Rieder Plaza","City":"Anderson","State":"SC","Zip":"29625"},
{"StreetAddress":"279 Gerald Place","City":"Miami","State":"FL","Zip":"33283"},
{"StreetAddress":"2 Mesta Way","City":"El Paso","State":"TX","Zip":"79928"},
{"StreetAddress":"56024 Duke Street","City":"Saint Louis","State":"MO","Zip":"63126"},
{"StreetAddress":"8677 Hermina Parkway","City":"Orlando","State":"FL","Zip":"32830"},
{"StreetAddress":"5 Tennessee Pass","City":"New Orleans","State":"LA","Zip":"70149"},
{"StreetAddress":"94 Kropf Street","City":"Chicago","State":"IL","Zip":"60624"},
{"StreetAddress":"738 Arizona Alley","City":"Conroe","State":"TX","Zip":"77305"},
{"StreetAddress":"34 Farwell Plaza","City":"Mesquite","State":"TX","Zip":"75185"},
{"StreetAddress":"8528 Crownhardt Avenue","City":"Juneau","State":"AK","Zip":"99812"},
{"StreetAddress":"166 Moland Court","City":"Newport News","State":"VA","Zip":"23612"},
{"StreetAddress":"9618 Bluejay Center","City":"San Diego","State":"CA","Zip":"92160"},
{"StreetAddress":"2 Pierstorff Park","City":"Tucson","State":"AZ","Zip":"85720"},
{"StreetAddress":"58 Crest Line Center","City":"Colorado Springs","State":"CO","Zip":"80910"},
{"StreetAddress":"89 Debs Point","City":"Fort Lauderdale","State":"FL","Zip":"33310"},
{"StreetAddress":"25424 Sage Street","City":"Bellevue","State":"WA","Zip":"98008"},
{"StreetAddress":"99113 Michigan Junction","City":"Oakland","State":"CA","Zip":"94611"},
{"StreetAddress":"8415 Jenna Road","City":"Huntsville","State":"AL","Zip":"35815"},
{"StreetAddress":"2150 Hermina Crossing","City":"Grand Rapids","State":"MI","Zip":"49510"},
{"StreetAddress":"4 Duke Way","City":"Scottsdale","State":"AZ","Zip":"85255"},
{"StreetAddress":"6 Fallview Center","City":"New York City","State":"NY","Zip":"10260"},
{"StreetAddress":"82121 Ilene Lane","City":"Houston","State":"TX","Zip":"77005"},
{"StreetAddress":"10998 David Hill","City":"Gastonia","State":"NC","Zip":"28055"},
{"StreetAddress":"00 Dawn Pass","City":"Wilmington","State":"NC","Zip":"28410"},
{"StreetAddress":"09 Ilene Point","City":"Portland","State":"OR","Zip":"97206"},
{"StreetAddress":"31 Brown Terrace","City":"Fort Worth","State":"TX","Zip":"76121"},
{"StreetAddress":"7145 Lotheville Pass","City":"Baton Rouge","State":"LA","Zip":"70836"},
{"StreetAddress":"7557 Gerald Crossing","City":"Port Washington","State":"NY","Zip":"11054"},
{"StreetAddress":"3 Sunnyside Plaza","City":"San Diego","State":"CA","Zip":"92165"},
{"StreetAddress":"6 Merrick Court","City":"Pittsburgh","State":"PA","Zip":"15220"},
{"StreetAddress":"728 Oakridge Court","City":"San Diego","State":"CA","Zip":"92176"},
{"StreetAddress":"4 Killdeer Court","City":"Jamaica","State":"NY","Zip":"11407"},
{"StreetAddress":"5 John Wall Drive","City":"Marietta","State":"GA","Zip":"30061"},
{"StreetAddress":"19 Merchant Crossing","City":"Springfield","State":"MO","Zip":"65810"},
{"StreetAddress":"403 Crowley Crossing","City":"Mesa","State":"AZ","Zip":"85215"},
{"StreetAddress":"055 Pepper Wood Court","City":"Valley Forge","State":"PA","Zip":"19495"},
{"StreetAddress":"9 Continental Hill","City":"Atlanta","State":"GA","Zip":"30336"},
{"StreetAddress":"9 Wayridge Hill","City":"Ventura","State":"CA","Zip":"93005"},
{"StreetAddress":"454 Vernon Drive","City":"Corpus Christi","State":"TX","Zip":"78465"},
{"StreetAddress":"23208 Clyde Gallagher Junction","City":"Birmingham","State":"AL","Zip":"35295"},
{"StreetAddress":"434 Cardinal Pass","City":"Greensboro","State":"NC","Zip":"27409"},
{"StreetAddress":"7954 Hauk Court","City":"New Orleans","State":"LA","Zip":"70160"},
{"StreetAddress":"96 Tennyson Plaza","City":"Washington","State":"DC","Zip":"20546"},
{"StreetAddress":"9 Blackbird Park","City":"El Paso","State":"TX","Zip":"88525"},
{"StreetAddress":"5 Vahlen Drive","City":"Brooklyn","State":"NY","Zip":"11210"},
{"StreetAddress":"376 Stone Corner Point","City":"Peoria","State":"IL","Zip":"61635"},
{"StreetAddress":"01 Hooker Avenue","City":"San Antonio","State":"TX","Zip":"78240"},
{"StreetAddress":"92 Dawn Center","City":"Northridge","State":"CA","Zip":"91328"},
{"StreetAddress":"0 Gina Center","City":"Fort Lauderdale","State":"FL","Zip":"33305"},
{"StreetAddress":"894 Lighthouse Bay Pass","City":"Washington","State":"DC","Zip":"20205"},
{"StreetAddress":"7959 Surrey Center","City":"Colorado Springs","State":"CO","Zip":"80935"},
{"StreetAddress":"9501 Florence Court","City":"Ogden","State":"UT","Zip":"84409"},
{"StreetAddress":"13010 Sachs Center","City":"Ogden","State":"UT","Zip":"84403"},
{"StreetAddress":"34771 Kropf Park","City":"North Hollywood","State":"CA","Zip":"91606"},
{"StreetAddress":"9403 Menomonie Alley","City":"Kissimmee","State":"FL","Zip":"34745"},
{"StreetAddress":"4 Namekagon Way","City":"Grand Rapids","State":"MI","Zip":"49505"},
{"StreetAddress":"57467 Hooker Street","City":"Amarillo","State":"TX","Zip":"79176"},
{"StreetAddress":"3 Forster Way","City":"Baltimore","State":"MD","Zip":"21203"},
{"StreetAddress":"7 Arkansas Center","City":"Phoenix","State":"AZ","Zip":"85035"},
{"StreetAddress":"787 Fremont Park","City":"Durham","State":"NC","Zip":"27710"},
{"StreetAddress":"88896 Valley Edge Point","City":"Trenton","State":"NJ","Zip":"08608"},
{"StreetAddress":"19409 Hoepker Lane","City":"Tucson","State":"AZ","Zip":"85737"},
{"StreetAddress":"16822 Novick Drive","City":"Sacramento","State":"CA","Zip":"94257"},
{"StreetAddress":"48024 Gulseth Street","City":"Buffalo","State":"NY","Zip":"14220"},
{"StreetAddress":"702 Spenser Circle","City":"Little Rock","State":"AR","Zip":"72215"},
{"StreetAddress":"70 Helena Street","City":"Fort Wayne","State":"IN","Zip":"46825"},
{"StreetAddress":"0 Kingsford Crossing","City":"Saint Louis","State":"MO","Zip":"63126"},
{"StreetAddress":"31 Algoma Center","City":"Santa Barbara","State":"CA","Zip":"93106"},
{"StreetAddress":"13 Lillian Pass","City":"Las Vegas","State":"NV","Zip":"89145"},
{"StreetAddress":"5 Colorado Plaza","City":"Des Moines","State":"IA","Zip":"50315"},
{"StreetAddress":"86 Kinsman Drive","City":"Colorado Springs","State":"CO","Zip":"80915"},
{"StreetAddress":"119 Grim Avenue","City":"Merrifield","State":"VA","Zip":"22119"},
{"StreetAddress":"3604 Declaration Parkway","City":"Detroit","State":"MI","Zip":"48206"},
{"StreetAddress":"4 Iowa Lane","City":"Atlanta","State":"GA","Zip":"31190"},
{"StreetAddress":"307 Eastlawn Street","City":"Houston","State":"TX","Zip":"77206"},
{"StreetAddress":"55 Ridge Oak Circle","City":"Colorado Springs","State":"CO","Zip":"80930"},
{"StreetAddress":"04 Maryland Pass","City":"Tallahassee","State":"FL","Zip":"32399"},
{"StreetAddress":"20456 Schmedeman Drive","City":"Jackson","State":"MS","Zip":"39204"},
{"StreetAddress":"911 Glacier Hill Plaza","City":"Santa Rosa","State":"CA","Zip":"95405"},
{"StreetAddress":"3 Waywood Road","City":"Denver","State":"CO","Zip":"80262"},
{"StreetAddress":"0 Clove Parkway","City":"Norcross","State":"GA","Zip":"30092"},
{"StreetAddress":"56 Bunker Hill Way","City":"Santa Clara","State":"CA","Zip":"95054"},
{"StreetAddress":"1618 Kipling Lane","City":"Dallas","State":"TX","Zip":"75287"},
{"StreetAddress":"4550 Morrow Pass","City":"Brooklyn","State":"NY","Zip":"11247"},
{"StreetAddress":"8 Logan Avenue","City":"Baton Rouge","State":"LA","Zip":"70810"},
{"StreetAddress":"9498 Cardinal Plaza","City":"Minneapolis","State":"MN","Zip":"55470"},
{"StreetAddress":"3 Lawn Street","City":"Las Vegas","State":"NV","Zip":"89125"},
{"StreetAddress":"38508 Hansons Crossing","City":"Phoenix","State":"AZ","Zip":"85083"},
{"StreetAddress":"6 Dakota Road","City":"New York City","State":"NY","Zip":"10105"},
{"StreetAddress":"8 Green Ridge Place","City":"Amarillo","State":"TX","Zip":"79182"},
{"StreetAddress":"27626 Tony Plaza","City":"Charleston","State":"WV","Zip":"25326"},
{"StreetAddress":"886 Eagan Place","City":"Charleston","State":"SC","Zip":"29416"},
{"StreetAddress":"39010 Harper Lane","City":"Birmingham","State":"AL","Zip":"35205"},
{"StreetAddress":"3554 Old Shore Place","City":"Missoula","State":"MT","Zip":"59806"},
{"StreetAddress":"7752 Vera Alley","City":"Birmingham","State":"AL","Zip":"35285"},
{"StreetAddress":"2 Maryland Plaza","City":"Elmira","State":"NY","Zip":"14905"},
{"StreetAddress":"64435 American Ash Terrace","City":"Chandler","State":"AZ","Zip":"85246"},
{"StreetAddress":"343 Waubesa Place","City":"Baltimore","State":"MD","Zip":"21216"},
{"StreetAddress":"5 Muir Court","City":"Albany","State":"GA","Zip":"31704"},
{"StreetAddress":"2 Longview Pass","City":"Madison","State":"WI","Zip":"53710"},
{"StreetAddress":"61184 Union Court","City":"Sacramento","State":"CA","Zip":"94207"},
{"StreetAddress":"7 Everett Trail","City":"Philadelphia","State":"PA","Zip":"19125"},
{"StreetAddress":"4009 Manley Plaza","City":"Tampa","State":"FL","Zip":"33673"},
{"StreetAddress":"57 Dakota Hill","City":"Brooklyn","State":"NY","Zip":"11210"},
{"StreetAddress":"4708 Lakeland Plaza","City":"Warren","State":"MI","Zip":"48092"},
{"StreetAddress":"7 Schurz Road","City":"Dayton","State":"OH","Zip":"45408"},
{"StreetAddress":"423 Loftsgordon Center","City":"Montgomery","State":"AL","Zip":"36109"},
{"StreetAddress":"9 Shoshone Parkway","City":"Wilmington","State":"DE","Zip":"19886"},
{"StreetAddress":"99667 Judy Road","City":"Minneapolis","State":"MN","Zip":"55428"},
{"StreetAddress":"06 Dakota Terrace","City":"Charleston","State":"WV","Zip":"25336"},
{"StreetAddress":"7355 Raven Place","City":"Phoenix","State":"AZ","Zip":"85072"},
{"StreetAddress":"118 Susan Street","City":"Atlanta","State":"GA","Zip":"30311"},
{"StreetAddress":"29 Barby Avenue","City":"Clearwater","State":"FL","Zip":"34620"},
{"StreetAddress":"5020 Monica Place","City":"Washington","State":"DC","Zip":"20546"},
{"StreetAddress":"595 Donald Park","City":"Cleveland","State":"OH","Zip":"44105"},
{"StreetAddress":"43 Bartelt Pass","City":"Saint Louis","State":"MO","Zip":"63196"},
{"StreetAddress":"40 Clarendon Street","City":"Killeen","State":"TX","Zip":"76544"},
{"StreetAddress":"8 Golf View Alley","City":"Minneapolis","State":"MN","Zip":"55458"},
{"StreetAddress":"5 Kenwood Point","City":"Canton","State":"OH","Zip":"44710"},
{"StreetAddress":"54 Scott Point","City":"Gastonia","State":"NC","Zip":"28055"},
{"StreetAddress":"4207 Crowley Parkway","City":"Raleigh","State":"NC","Zip":"27635"},
{"StreetAddress":"890 Stuart Road","City":"Petaluma","State":"CA","Zip":"94975"},
{"StreetAddress":"0 Golf View Drive","City":"Arlington","State":"TX","Zip":"76011"},
{"StreetAddress":"75 North Circle","City":"Santa Barbara","State":"CA","Zip":"93150"},
{"StreetAddress":"0 Delaware Park","City":"Tulsa","State":"OK","Zip":"74149"},
{"StreetAddress":"9796 Roth Circle","City":"Memphis","State":"TN","Zip":"38161"},
{"StreetAddress":"01 South Avenue","City":"Las Vegas","State":"NV","Zip":"89115"},
{"StreetAddress":"4861 Graceland Drive","City":"El Paso","State":"TX","Zip":"79945"},
{"StreetAddress":"1 Orin Way","City":"Nashville","State":"TN","Zip":"37220"},
{"StreetAddress":"3746 Moose Circle","City":"Boston","State":"MA","Zip":"02203"},
{"StreetAddress":"09182 Calypso Center","City":"Huntington","State":"WV","Zip":"25726"},
{"StreetAddress":"7 Namekagon Drive","City":"Bakersfield","State":"CA","Zip":"93305"},
{"StreetAddress":"854 Tennessee Plaza","City":"Odessa","State":"TX","Zip":"79769"},
{"StreetAddress":"871 Sommers Point","City":"Bronx","State":"NY","Zip":"10459"},
{"StreetAddress":"7 Oak Valley Lane","City":"Pasadena","State":"CA","Zip":"91131"},
{"StreetAddress":"289 Caliangt Place","City":"Naples","State":"FL","Zip":"33963"},
{"StreetAddress":"2778 Sauthoff Place","City":"Cedar Rapids","State":"IA","Zip":"52410"},
{"StreetAddress":"826 Bartillon Place","City":"Arlington","State":"TX","Zip":"76011"},
{"StreetAddress":"6 Johnson Road","City":"Seattle","State":"WA","Zip":"98104"},
{"StreetAddress":"1121 Jenna Hill","City":"Loretto","State":"MN","Zip":"55598"},
{"StreetAddress":"07 High Crossing Circle","City":"Cleveland","State":"OH","Zip":"44111"},
{"StreetAddress":"11460 Clemons Way","City":"Salem","State":"OR","Zip":"97306"},
{"StreetAddress":"12956 Northland Terrace","City":"Pinellas Park","State":"FL","Zip":"34665"},
{"StreetAddress":"116 Florence Lane","City":"Riverside","State":"CA","Zip":"92513"},
{"StreetAddress":"3 Gale Avenue","City":"Tulsa","State":"OK","Zip":"74184"},
{"StreetAddress":"923 Artisan Hill","City":"New York City","State":"NY","Zip":"10292"},
{"StreetAddress":"7 Forest Dale Court","City":"Hartford","State":"CT","Zip":"06105"},
{"StreetAddress":"94 Lerdahl Road","City":"Montgomery","State":"AL","Zip":"36125"},
{"StreetAddress":"1 Monument Crossing","City":"Irvine","State":"CA","Zip":"92619"},
{"StreetAddress":"487 Brickson Park Parkway","City":"Houston","State":"TX","Zip":"77050"},
{"StreetAddress":"914 Lerdahl Parkway","City":"Las Vegas","State":"NV","Zip":"89110"},
{"StreetAddress":"2 5th Pass","City":"Schaumburg","State":"IL","Zip":"60193"},
{"StreetAddress":"4 West Lane","City":"Lansing","State":"MI","Zip":"48956"},
{"StreetAddress":"51445 Pennsylvania Hill","City":"Gadsden","State":"AL","Zip":"35905"},
{"StreetAddress":"7182 Russell Pass","City":"Syracuse","State":"NY","Zip":"13251"},
{"StreetAddress":"543 Heath Street","City":"Washington","State":"DC","Zip":"20430"},
{"StreetAddress":"3009 Packers Junction","City":"Washington","State":"DC","Zip":"20370"},
{"StreetAddress":"09 Sauthoff Plaza","City":"Knoxville","State":"TN","Zip":"37939"},
{"StreetAddress":"921 Jana Lane","City":"Saint Paul","State":"MN","Zip":"55123"},
{"StreetAddress":"8635 Mosinee Parkway","City":"Melbourne","State":"FL","Zip":"32919"},
{"StreetAddress":"120 Grover Circle","City":"Bronx","State":"NY","Zip":"10459"},
{"StreetAddress":"77122 Granby Lane","City":"Bellevue","State":"WA","Zip":"98008"},
{"StreetAddress":"120 Warner Lane","City":"San Francisco","State":"CA","Zip":"94110"},
{"StreetAddress":"18 Rockefeller Alley","City":"Tampa","State":"FL","Zip":"33680"},
{"StreetAddress":"85637 Marcy Lane","City":"Pueblo","State":"CO","Zip":"81015"},
{"StreetAddress":"7 American Way","City":"Des Moines","State":"IA","Zip":"50330"},
{"StreetAddress":"6631 Fieldstone Drive","City":"Denver","State":"CO","Zip":"80209"},
{"StreetAddress":"0 Mendota Center","City":"Dallas","State":"TX","Zip":"75260"},
{"StreetAddress":"4867 Myrtle Hill","City":"Valley Forge","State":"PA","Zip":"19495"},
{"StreetAddress":"4 Brickson Park Parkway","City":"Clearwater","State":"FL","Zip":"33763"},
{"StreetAddress":"33 2nd Drive","City":"Dallas","State":"TX","Zip":"75265"},
{"StreetAddress":"1 Hanson Lane","City":"Tulsa","State":"OK","Zip":"74126"},
{"StreetAddress":"7623 Mesta Parkway","City":"Arlington","State":"TX","Zip":"76011"},
{"StreetAddress":"896 Sage Court","City":"Columbia","State":"SC","Zip":"29203"},
{"StreetAddress":"5 Dennis Road","City":"Pomona","State":"CA","Zip":"91797"},
{"StreetAddress":"7166 East Crossing","City":"Dallas","State":"TX","Zip":"75246"},
{"StreetAddress":"816 Sauthoff Alley","City":"Denver","State":"CO","Zip":"80270"},
{"StreetAddress":"53 Hagan Junction","City":"Wichita","State":"KS","Zip":"67236"},
{"StreetAddress":"11 Melvin Place","City":"Houston","State":"TX","Zip":"77025"},
{"StreetAddress":"13488 Talisman Center","City":"Boston","State":"MA","Zip":"02298"},
{"StreetAddress":"565 Bayside Place","City":"Fresno","State":"CA","Zip":"93709"},
{"StreetAddress":"02788 Fieldstone Junction","City":"Augusta","State":"GA","Zip":"30911"},
{"StreetAddress":"24 Carey Parkway","City":"Washington","State":"DC","Zip":"20503"},
{"StreetAddress":"7 Utah Avenue","City":"Colorado Springs","State":"CO","Zip":"80915"},
{"StreetAddress":"1 Cottonwood Street","City":"Albany","State":"NY","Zip":"12262"},
{"StreetAddress":"687 Burning Wood Point","City":"Fort Wayne","State":"IN","Zip":"46825"},
{"StreetAddress":"7511 Blue Bill Park Place","City":"Brooklyn","State":"NY","Zip":"11231"},
{"StreetAddress":"2972 Mifflin Park","City":"Fort Wayne","State":"IN","Zip":"46862"},
{"StreetAddress":"8166 Corben Drive","City":"Phoenix","State":"AZ","Zip":"85030"},
{"StreetAddress":"438 Packers Parkway","City":"Saint Louis","State":"MO","Zip":"63180"},
{"StreetAddress":"0 Coleman Pass","City":"Atlanta","State":"GA","Zip":"30301"},
{"StreetAddress":"6945 Redwing Road","City":"Washington","State":"DC","Zip":"20409"},
{"StreetAddress":"323 Waxwing Road","City":"Miami","State":"FL","Zip":"33261"},
{"StreetAddress":"48627 Northland Plaza","City":"New Orleans","State":"LA","Zip":"70183"},
{"StreetAddress":"73310 Calypso Crossing","City":"Minneapolis","State":"MN","Zip":"55448"},
{"StreetAddress":"9299 Shopko Junction","City":"Columbus","State":"OH","Zip":"43210"},
{"StreetAddress":"40965 Algoma Way","City":"San Jose","State":"CA","Zip":"95133"},
{"StreetAddress":"287 Lawn Crossing","City":"Jackson","State":"MS","Zip":"39216"},
{"StreetAddress":"5412 Mesta Point","City":"Irving","State":"TX","Zip":"75062"},
{"StreetAddress":"39457 Lillian Street","City":"New York City","State":"NY","Zip":"10115"},
{"StreetAddress":"7 Dunning Point","City":"Fresno","State":"CA","Zip":"93740"},
{"StreetAddress":"8 Bowman Drive","City":"Youngstown","State":"OH","Zip":"44511"},
{"StreetAddress":"472 Westerfield Point","City":"Kansas City","State":"MO","Zip":"64136"},
{"StreetAddress":"38 Gulseth Street","City":"Saint Louis","State":"MO","Zip":"63116"},
{"StreetAddress":"8 Cambridge Place","City":"Austin","State":"TX","Zip":"78769"},
{"StreetAddress":"811 Ridgeway Center","City":"Washington","State":"DC","Zip":"20319"},
{"StreetAddress":"2 Fieldstone Place","City":"Fresno","State":"CA","Zip":"93709"},
{"StreetAddress":"87101 Monument Alley","City":"Atlanta","State":"GA","Zip":"30336"},
{"StreetAddress":"95 Garrison Lane","City":"Cheyenne","State":"WY","Zip":"82007"},
{"StreetAddress":"3120 Kings Hill","City":"Louisville","State":"KY","Zip":"40225"},
{"StreetAddress":"9148 Fallview Plaza","City":"Providence","State":"RI","Zip":"02905"},
{"StreetAddress":"598 Coolidge Plaza","City":"Raleigh","State":"NC","Zip":"27690"},
{"StreetAddress":"3989 Cambridge Plaza","City":"Charleston","State":"WV","Zip":"25326"},
{"StreetAddress":"61821 Bartillon Pass","City":"Miami","State":"FL","Zip":"33261"},
{"StreetAddress":"64167 Huxley Circle","City":"Miami","State":"FL","Zip":"33147"}]